EduID,Name,Main Category,Phone1,Phone2,Phone3,Phone4,Phone5,Street Address,Locality,Pincode,City,Country,Mail,Website,Person to Contact,Working Hours,Services Offered,Details,Images URL,Keywords
4132,The Presidential School,cbse-schools,0891 - 2700085, 0891 - 2534681,,,,Door No. 50-121-27/1,Seethammadhara,530013,visakhapatnam,India,presidential_ld@rocketmail.com,,Anand,Monday - Saturday: 9 AM - 5 PM,"CBSE High Schools , CBSE Higher Secondary Schools , ",,,"Boarding CBSE Schools , CBSE Day Schools , Regional Language CBSE Schools , School Bus Facility CBSE Schools , Sports Facility CBSE Schools , "
4133,Dr. KKR Gowtham International School,cbse-schools,0891 - 2715199, 0891 - 2716199, 9160444004,,,,L.B. Colony,530017,visakhapatnam,India,,http://www.kkrgowtham.com,C.J. Chako,,"State Board Schools , CBSE Higher Secondary Schools , CBSE Primary Schools , State Board Higher Secondary Schools , State Board Primary Schools , ",,,
4134,Ravindra Bharathi School,cbse-schools,8096699733,,,,,Door No. 30-6-26,Dada Gardens,530020,visakhapatnam,India,,http://www.rbschools.in,,,"CBSE High Schools , CBSE Primary Schools , ",,,
4135,SR Digi School,cbse-schools,0891 - 2547070, 9642822322,,,,"No. 45-51-10,",Akkayyapalem,530016,visakhapatnam,India,,http://www.srdigischool.com,P.L.eelaSreedhar,Monday - Saturday: 8.30 AM - 5 PM,"State Board Schools , CBSE Primary Schools , State Board High Schools , ",,,
4136,SR Digi School,cbse-schools,0891 - 2593594, 9493942552,,,,,Gajuwaka,530026,visakhapatnam,India,,http://www.srdigischool.com,,,"CBSE High Schools , CBSE Primary Schools , ",,,
4137,Narayana IIT Olympiad School,cbse-schools,0891 - 2500237, 8500265711, 9160299261,,,No. 9-21-2,,,visakhapatnam,India,niop.iit@narayanainfo.com,http://www.narayanaolympiadschool.org,Someshwar Rao,Monday - Saturday: 8.30 AM - 5 PM,"ICSE Schools , State Board Schools , CBSE Primary Schools , State Board High Schools , State Board Primary Schools , ICSE Primary Schools , ",,,"CBSE Day Schools , Co-curricular Activities CBSE Schools , Co-Education ICSE Schools , Digital Classroom CBSE Schools , English Medium CBSE Schools , Kindergarten CBSE Schools , School Bus Facility CBSE Schools , Social Service Activity CBSE Schools , Sports Facility CBSE Schools , "
4138,Greenways Academy,cbse-schools,0891 - 2718256,,,,,,Marripalem,530018,visakhapatnam,India,bgowrib@yahoo.com,,B. Gowrishwari,Monday - Sunday : 24 Hrs,"CBSE Primary Schools , ",,,
4139,Sri Satya Sai Vidya Vihar,cbse-schools,0891 - 2552041, 0891 - 2783905,,,,,MVP Colony,530017,visakhapatnam,India,,,Nageshwar Rao,,"State Board Schools , CBSE High Schools , CBSE Primary Schools , ",,,
4140,Sri Prakash Vidya Niketan,cbse-schools,0891 - 2503344, 0891 - 2782585,,,,,Seethammadhara,530013,visakhapatnam,India,,,Suneeta,Monday - Saturday: 8 AM - 6.30 PM,"CBSE High Schools , CBSE Primary Schools , ",,,
4141,Kendriya Vidyalaya,cbse-schools,0891 - 2577136,,,,,"Gandhigram, Nausenabagh",Malkapuram,530005,visakhapatnam,India,pkvno2i@rediffmail.com,,,,,,,
4142,Kendriya Vidyalaya,cbse-schools,,,,,,Thatichetlapalem,Waltair,530016,visakhapatnam,India,kvwaltair@yahoo.com,,,,,,,
4143,Adarsh Public School,cbse-schools,,,,,,Vinayak Nagar,Pedagantyada ,530044,visakhapatnam,India,adarshedu@bsnl.in,,,,,,,
4144,Kendriya Vidyalaya,cbse-schools,0891 - 2886043,,,,,Visakhapatnam Steel Plant Visakhapatnam Andhra Pradesh,,,visakhapatnam,India,kvwaltair@yahoo.com,,,,,,,
4145,Ameya World School,cbse-schools,,,,,,Sangivalasa,Sanjeevaiah Colony,531162,visakhapatnam,India,office@ameyaworldschool.in,http://www.ameyaworldschool.in,,,,,,
4146,Kendriya Vidyalaya,cbse-schools,0891 - 2899002,,,,,"Ins Kalinga, Post Bheemunipatnam (Via)",Chepala Uppada,531163,visakhapatnam,India,smrao@md3.vsnl.net.in,http://www.kvno1kota.nic,,,,,,
4147,Bal Bharati Public School,cbse-schools,0891 - 2283214,,,,,Sim Hadri Ntpc Township,Ntpc Deepanjali Nagar,600090,visakhapatnam,India,,,,,,,,
4148,Bhpv Senior Secondary School,cbse-schools,,,,,,Bhpv Township Bhpv Limited,,,visakhapatnam,India,ed.bhpv@rmj.sprintrpg.ems.vsnl.net.in,,,,,,,
4149,DAV Public School,cbse-schools,0891 - 2518407,,,,,Sector-Iii Ukkunagaram,,,visakhapatnam,India,davcpsukkunagaramvsp@yahoo.co.in,,,,,,,
4150,DAV Public School,cbse-schools,0891 - 2513496,,,,,No. 4-130,,,visakhapatnam,India,davsnvsp@yahoo.com,,,,,,,
4151,Delhi Public School,cbse-schools,0891 - 2510686, 0891 - 2886880,,,,Vsp Sector Viii Ukkunagaram Sector-Viii Ukkunagaram Andhra Pradesh,,,visakhapatnam,India,b.aruna.dps@gmail.com,http://www.dpsvisakhapatn,,,,,,
4152,Kendriya Vidyalaya,cbse-schools,0891 - 2558267,,,,,Naval Armament Depot,,,visakhapatnam,India,kvnadvsp9@yahoo.co.uk,,,,,,,
4153,Jawahar Navodaya Vidyalaya,cbse-schools,0891 - 2739245,,,,,Kommadi,,,visakhapatnam,India,jnvvisakhapatnam@yahoo.com,,,,,,,
4154,Jawahar Navodaya Vidyalaya,cbse-schools,0891 - 2277726,,,,,Kiltampalem,,,visakhapatnam,India,,,,,,,,
4155,Kakatiya Public School,cbse-schools,0891 - 2517266, 0891 - 2516757,,,,B C Road,,,visakhapatnam,India,kakatiyapublicschool@gmail.com,http://kakatiyaschool,,,,,,
4156,Kendriya Vidyalaya No 1,cbse-schools,0891 - 2558357,,,,,"Sri Vijay Nagar, 104 Area Industrial Estate",,,visakhapatnam,India,kv1svn@sancharnet.in,http://kv1svn@sancharnet.in,,,,,,
4157,Kendriya Vidyalaya No 1,cbse-schools,0891 - 2577549,,,,,"Nausenabaugh, Gandhigram",,,visakhapatnam,India,kv1nsb@rediffmail.com,http://kv1nsb@rediffmail.com,,,,,,
4158,Kendriya Vidyalaya No 2,cbse-schools,08923 - 577614,,,,,Nausenabagh,Gandhigram,530005,visakhapatnam,India,kv2principal@yahoo.com,,,,,,,
4159,Kendriya Vidyalaya No 2,cbse-schools,08923 - 558038,,,,,"No. 104, Sri Vijaya Nagar Industrial Estate",,,visakhapatnam,India,kv2svn@rediffmail.com,,,,,,,
4160,Little Angels School,cbse-schools,,,,,,"Sector 9, Ukkungram",,,visakhapatnam,India,,,,,,,,
4161,Little Angles School,cbse-schools,0891 - 2553231, 0891 - 2550456,,,,Sector 3,,,visakhapatnam,India,bvm_elmk@yahoo.com,,,,,,,
4162,Naval Public School No 2,cbse-schools,08923 - 559575,,,,,"Sri Vijay Nagar Colony, 104 Area, Maipalam",,,visakhapatnam,India,,,,,,,,
4163,Navy Children School,cbse-schools,0891 - 2740283,,,,,Nausenabaugh,,,visakhapatnam,India,ncs_visakha@rediffmail.com,http://www.ncsnavy.com,,,,,,
4164,Oakridge International School,cbse-schools,0891 - 2511111,,,,,"National Highway 5, Tagarapuvalasa, Singanabanda, Bhimunipatnam Mandal",,,visakhapatnam,India,westwoodinfo@oakridge.in,http://www.wwis.in,,,,,,
4165,Rishi Vidyalaya,cbse-schools,08923 - 556397,,,,,"Gorukulam, Boduvalasa,Savvhavaram",,,visakhapatnam,India,ssylakshmi2000@yahoo.com,,,,,,,
4166,Sri Chaitanya Techno School,cbse-schools,0891 - 2717500,,,,,"Gambeeram Boya Palem, Ananda Puram",,,visakhapatnam,India,srichaitanyatechnoschool@gmail.com,http://www.srichaitanyatechnoschools.com,,,,,,
4167,Sri Chaitanya Vidya Niketan,cbse-schools,0891 - 2016866,,,,,Marikavalasa,Madhurawada,530041,visakhapatnam,India,webmaster@srichaitanya.net,http://srichaitanya.net,,,,,,
4168,Sri Prakash Vidya Niketan,cbse-schools,08854 - 254544,,,,,Puram,,,visakhapatnam,India,sriprakash_educ@yahoo.com,http://www.sriprakash.org,,,,,,
4169,Sri Sathya Sai Vidya Vihar,cbse-schools,0891 - 552041,,,,,"Sector 8, Muvvalavanipalem Colony",,,visakhapatnam,India,nbpschool@gmail.com,http://www.nbps.in,,,,,,
4170,The Presidential School,cbse-schools,9866565451,,,,,"Survey No. 274/18 & 22, Kapuluppada, K Nagerapalam",,,visakhapatnam,India,presidential_ld@rocketmail.com,,,,,,,
4171,Timpany Secondary School,cbse-schools,0891 - 2455157, 0891 - 2597153,,,,Cbm Compound,,,visakhapatnam,India,stjohnsps@gmail.com,,,,,,,
4172,Vignan Vidyalayam,cbse-schools,8933224041,,,,,Bhimili Beach Road,,,visakhapatnam,India,tsbabu_2511@yahoo.com,,,,,,,
4173,Vijnana Vihara Residential School,cbse-schools,0891 - 2892130, 0891 - 2892157,,,,Gudilova,Pendurthi,531173,visakhapatnam,India,vv_rs@yahoo.com,,,,,,,
4174,Vikas Vidyaniketan,cbse-schools,,,,,,No. 1-1-1/1,Sheela Nagar,12,visakhapatnam,India,,,,,,,,
4175,Ravijis Little Champs School,cbse-schools,9966022238,,,,,"No. 48, Last Bus Stop, Vuda Colony",Madhavadhara,530001,visakhapatnam,India,littlechampsschool@gmail.com,http://www.littlechampsschoolvsp.com,Ravi,Monday - Saturday: 9 AM - 4 PM,"Playschools , CBSE High Schools , CBSE Primary Schools , ","Ravijis Little Champs is known for its quality services and timelines. We address your needs with utmost care and ensure your satisfaction in whatever we do. Give us an opportunity to serve you. We will gift you with a pleasant experience. We value the trust and beliefs vested in us by our customers and professional contacts, and give a dedicated service with an honest and direct approach in all our dealings. We look forward to your business and hope you would give us a chance to serve. Contact us now.  ",,"AC Facility CBSE Schools , Activity Room Facility Palyschools , Bus Facility Playschools , CBSE Day Schools , English Medium CBSE Schools , Gym & Fitness CBSE Schools , Hindi Medium CBSE School , Kindergarten CBSE Schools , Nursery Schools , Playground Facility Playschools , School Bus Facility CBSE Schools , Social Service Activity CBSE Schools , Sports Facility CBSE Schools , Swimming Pool Facility CBSE Schools , Toy Room Playschools , "
4176,Dr. KKRs Gowtham Concept School,cbse-schools,0891 - 2703199, 0891 - 2704199, 9160444403, 9642840777,,,Kurmannapalem,530046,visakhapatnam,India,,http://www.kkrgowtham.com,,Monday - Saturday: 8.30 AM - 3.30 PM,"CBSE High Schools , CBSE Primary Schools , ",,,"CBSE Day Schools , Kindergarten CBSE Schools , School Bus Facility CBSE Schools , Social Service Activity CBSE Schools , Sports Facility CBSE Schools , "
4177,Minerva Eduactional Institutions,cbse-schools,0891 - 6565655, 0891 - 2555655, 0891 - 2757777,,,No. 49-53-10,Seethammadhara,530013,visakhapatnam,India,,http://www.minerva.edu.in,,,"CBSE Higher Secondary Schools , CBSE Primary Schools , ",,,
4178,Shiridi Sai Vidya Vihar,cbse-schools,0891 - 2715278, 0891 - 2712927, 0891 -  2714452,,,,Srinivasa Nagar,530016,visakhapatnam,India,,,,,"CBSE High Schools , CBSE Higher Secondary Schools , ",,,
4179,Shemrock & Shemford Group of Schools,cbse-schools,9866998899,,,,,Door No. 55-42-3,Seethammadhara,530013,visakhapatnam,India,vizag@shemford.com,http://www.shemford.com,Datla Raghu Rama Raju,Monday - Saturday: 8 AM - 1 PM,"Playschools , International Schools , CBSE Primary Schools , ","SHEMFORD is a pioneer in quality education. With an in-house R&D division, which is constantly tuned into the newest of technologies and with the best team of academicians, SHEMFORD is dedicated to constantly upgrading its unique & futuristic ShemEduMAXTM system of education, which is one of its kind in the school fraternity. SHEMFORD is a dynamic educational community created by the interaction of committed faculty and enthusiastic parents.The vision of SHEMFORD Futuristic Schools extends beyond the narrow walls of classroom and textbooks. At SHEMFORD, we believe that education is all about preparing and equipping young people for life and not just for school. With this philosophy as our source of inspiration, we aim to provide a stimulating environment wherein children enjoy learning and can also perform to the best of their abilities, in all areas of our extensive curriculum. By providing inclusive education at SHEMFORD Futuristic Schools, we also aim to build capacity in our children to accept the challenges of life.At SHEMFORD, we have always believed that both teachers and parents play an important role in the growth and development of children and it is only through open communication, fruitful discussions and active participation that we can together lay a strong foundation for our children.  ","http://localserviceassets.blob.core.windows.net:80/businessphoto-t/1-e84071b5-9673-46bc-ad08-4c72c25a5e98.jpg , http://localserviceassets.blob.core.windows.net:80/businessphoto-t/3-c9c6facf-294d-4fd9-a2df-ac29f1857b68.jpg , http://localserviceassets.blob.core.windows.net:80/businessphoto-t/5-cd5c8380-43da-44e3-9ded-1af891bda378.jpg , http://localserviceassets.blob.core.windows.net:80/businessphoto-t/6-67eb83db-aec3-494e-9c75-e60602567fcb.png , http://localserviceassets.blob.core.windows.net:80/businessphoto-t/7-5ae3a151-fdea-40fc-a403-7d698135aa64.png , http://localserviceassets.blob.core.windows.net:80/businessphoto-m/1-e84071b5-9673-46bc-ad08-4c72c25a5e98.jpg , http://localserviceassets.blob.core.windows.net:80/businessphoto-m/3-c9c6facf-294d-4fd9-a2df-ac29f1857b68.jpg , http://localserviceassets.blob.core.windows.net:80/businessphoto-m/5-cd5c8380-43da-44e3-9ded-1af891bda378.jpg , http://localserviceassets.blob.core.windows.net:80/businessphoto-m/6-67eb83db-aec3-494e-9c75-e60602567fcb.png , http://localserviceassets.blob.core.windows.net:80/businessphoto-m/7-5ae3a151-fdea-40fc-a403-7d698135aa64.png , ","AC Facility CBSE Schools , Activity Room Facility Palyschools , Bus Facility Playschools , CBSE Day Schools , Digital Classroom CBSE Schools , English Medium CBSE Schools , Gym & Fitness CBSE Schools , Kindergarten CBSE Schools , Nursery Schools , Playground Facility Playschools , Preschools , Social Service Activity CBSE Schools , Sports Facility CBSE Schools , Toy Room Playschools , "
4180,NRIS Indian Springs,cbse-schools,0891 - 2495778,,,,,"No. 4-46-16, Plot No. 9",Pedda Waltair,530017,visakhapatnam,India,vizagprincipal@indiansprings.in,http://www.indiansprings.in,Rama Devi,Monday - Saturday: 9 AM - 4 PM,"State Board Schools , CBSE High Schools , CBSE Primary Schools , State Board Primary Schools , ",,,"CBSE Day Schools , Co-curricular Activities CBSE Schools , Co-Education CBSE Schools , Digital Classroom CBSE Schools , English Medium CBSE Schools , School Bus Facility CBSE Schools , Sports Facility CBSE Schools , "
4181,Amar Concept School,cbse-schools,0891 - 2548898, 0891 - 2548898, 0891 - 2548899, 9848936937, 9441322999,Door No. 58-18-87,Nad Kotha Road,530027,visakhapatnam,India,,http://www.amarconceptschool.com,Sunitha,Monday - Saturday: 7.30 AM - 5.30 PM ( Lunch: 12.30 AM - 1.30 PM ),"State Board Schools , CBSE Primary Schools , State Board Higher Secondary Schools , ",,,
4182,Siva Sivani Public School,icse-schools,0891 - 2550192, 9908301714,,,,No. 4-70-11/1,,,visakhapatnam,India,,http://www.sivasivanipublicschools.org,K.Umashankar,Monday - Saturday: 9 AM - 4 PM,"ICSE Primary Schools , ICSE High Schools , ",,,
4183,Narayana IIT Olympiad School,icse-schools,0891 - 2500237, 8500265711, 9160299261,,,No. 9-21-2,,,visakhapatnam,India,niop.iit@narayanainfo.com,http://www.narayanaolympiadschool.org,Someshwar Rao,Monday - Saturday: 8.30 AM - 5 PM,"ICSE Schools , State Board Schools , CBSE Primary Schools , State Board High Schools , State Board Primary Schools , ICSE Primary Schools , ",,,"CBSE Day Schools , Co-curricular Activities CBSE Schools , Co-Education ICSE Schools , Digital Classroom CBSE Schools , English Medium CBSE Schools , Kindergarten CBSE Schools , School Bus Facility CBSE Schools , Social Service Activity CBSE Schools , Sports Facility CBSE Schools , "
4184,Good Shepherd E.M. School,icse-schools,08924 - 230777,,,,,,,,visakhapatnam,India,goodshepherd_1978@rediffmail.com,,I Faith,,,,,
4185,St. Josephs High School,icse-schools,08936 - 249005,,,,,,,,visakhapatnam,India,sjhsaraku@gmail.com,,Vianney,,,,,
4186,Kotak Salesian School,icse-schools,0891 - 2754826, 0891 - 2713534,,,,,,,visakhapatnam,India,kotaksalesianschoolap050@gmail.com,,Fr George Alappatt,,,,,
4187,Nava Jeevan Public School,icse-schools,0891 - 2229569, 0891 - 2228089,,,,"Post Office Box No. 3, Charity Center, Bhimli",,,visakhapatnam,India,mktitus@hotmail.com,,Victor Joseph,,,,,
4188,Fort Catholic Girls School,icse-schools,0891 - 2502981,,,,,Old Post Office,,,visakhapatnam,India,fortcatholic_school@rediffmail.com,,Rosily,,,,,
4189,St. Francis School,icse-schools,0891 - 2781481,,,,,,,,visakhapatnam,India,sfstormadhurawada@yahoo.com,,PC Thomas,,,,,
4190,St. Josephs Secondary School,icse-schools,0891 - 2741632,,,,,,Malkapuram,530011,visakhapatnam,India,stjosephmkp@gmail.com,,Staji George,,,,,
4191,Spring Dales Public School,icse-schools,0891 - 2517485,,,,,"No. 2-72, High School Road",,,visakhapatnam,India,springdalesvsp@hotmail.com,,Prasad Kumar Chatterjee,,,,,
4192,De Paul School,icse-schools,0891 - 2708271, 0891 - 2887610,,,,Sector Viii,Ukkunagaram,530032,visakhapatnam,India,depauls32@yahoo.com,,Vincent Edakkarot,,,,,
4193,Bethany School,icse-schools,0891 - 2706121, 0891 - 2567722,,,,No. 10-50-29,Waltair Main Road,530002,visakhapatnam,India,bethy_sch@yahoo.com,,Evangeline Ranjan,,,,,
4194,Siva Sivani Public School,icse-schools,0891 - 2767822,,,,,,Ukkunagaram,530009,visakhapatnam,India,contact@sivasivanipublicschools.org,http://www.sivasivanipublicschools.org,,Monday - Saturday: 9 AM - 4 PM,"ICSE Primary Schools , ICSE High Schools , ",,,
4195,Little Angel School,icse-schools,0891 - 2751222,,,,,,Ukkunagaram,530032,visakhapatnam,India,littleangel.ukku.vsp@gmail.com,http://www.littleangels.org.in,Little Angel Schoo,Monday - Saturday: 9.30 AM - 4 PM,"ICSE Primary Schools , ",,,
4196,Bachpan A Play School,matriculation-schools,9052243456, 9052283456,,,,Vuda Colony ,Gajuwaka,530026,visakhapatnam,India,response@bachpanglobal.com,http://www.bachpanglobal.com,Sravani,Monday - Saturday: 9 AM - 12 PM,"Matriculation Primary Schools , ",,,"Daycare Centres , English Medium Playschools , "
4197,AP Social Welfare Residential Schools,matriculation-schools,8008001392,,,,,,Narsipatnam,531116,visakhapatnam,India,apswrs@gmail.com,,Premarao,Monday - Saturday: 9 AM - 4 PM,"Filmmaking Schools , Matriculation Higher Secondary Schools , ",,,
4198,Amar Concpet School,matriculation-schools,0891 - 2548891, 9603366992, 9603366982,,,Plot No. 26-42-2,Gajuwaka,530026,visakhapatnam,India,amar.gajuwaka@gmail.com,http://www.amarconceptschool.com,G. Amar,Monday - Saturday: 8.30 AM - 4 PM ( Lunch: 12 PM - 1 PM ),"Matriculation High Schools , ",,,
4199,Dr. KKR Gowtham International School,state-board-schools,0891 - 2715199, 0891 - 2716199, 9160444004,,,,L.B. Colony,530017,visakhapatnam,India,,http://www.kkrgowtham.com,C.J. Chako,,"State Board Schools , CBSE Higher Secondary Schools , CBSE Primary Schools , State Board Higher Secondary Schools , State Board Primary Schools , ",,,
4200,Visakha Public School,state-board-schools,9985062059,,,,,No. 53/11/10,Maddilapalem,530013,visakhapatnam,India,narasimhanaidumiddi@gmail.com,,M. Narasimha Naidu,Monday - Saturday: 9 AM - 4.30 PM,"State Board High Schools , State Board Primary Schools , ",,,
4201,SR Digi School,state-board-schools,0891 - 2547070, 9642822322,,,,"No. 45-51-10,",Akkayyapalem,530016,visakhapatnam,India,,http://www.srdigischool.com,P.L.eelaSreedhar,Monday - Saturday: 8.30 AM - 5 PM,"State Board Schools , CBSE Primary Schools , State Board High Schools , ",,,
4202,Narayana IIT Olympiad School,state-board-schools,0891 - 2500237, 8500265711, 9160299261,,,No. 9-21-2,,,visakhapatnam,India,niop.iit@narayanainfo.com,http://www.narayanaolympiadschool.org,Someshwar Rao,Monday - Saturday: 8.30 AM - 5 PM,"ICSE Schools , State Board Schools , CBSE Primary Schools , State Board High Schools , State Board Primary Schools , ICSE Primary Schools , ",,,"CBSE Day Schools , Co-curricular Activities CBSE Schools , Co-Education ICSE Schools , Digital Classroom CBSE Schools , English Medium CBSE Schools , Kindergarten CBSE Schools , School Bus Facility CBSE Schools , Social Service Activity CBSE Schools , Sports Facility CBSE Schools , "
4203,Annapurna Public School,state-board-schools,0891 - 2511663,,,,,,Gajuwaka,530012,visakhapatnam,India,,,,,,,,
4204,Aruna Public School,state-board-schools,0891 - 2726677,,,,,,Nad Kotha Road,530009,visakhapatnam,India,,,,,,,,
4205,Aswini Public School,state-board-schools,0891 - 2573227,,,,,,Pedda Waltair,530023,visakhapatnam,India,,,Jaya Bharathi,,,,,
4206,Bethany School,state-board-schools,0891 - 2533255,,,,,,Daspalla Hills,530003,visakhapatnam,India,,,,,,,,
4207,Bethany School,state-board-schools,0891 - 2714040,,,,,,Maharani Peta,530002,visakhapatnam,India,,,,,,,,
4208,C B M High School,state-board-schools,0891 - 2569318,,,,,,Velampeta,530001,visakhapatnam,India,,,,,,,,
4209,Dvk Public School,state-board-schools,0891 - 2734649,,,,,,Marripalem,530018,visakhapatnam,India,,,,,,,,
4210,Mahathi Public School,state-board-schools,0891 - 2767689, 9666681911,,,,,Pendurthi,530051,visakhapatnam,India,,,G. Surekha,,,,,
4211,Maritime Education Training & Research Institute,state-board-schools,0891 - 5548336,,,,,,Jagadamba Junction,530020,visakhapatnam,India,,,,,,,,
4212,Prasnathi Niketan Mvvs Murthy E M H School,state-board-schools,0891 - 2558237, 0891 - 2727100,,,,,Marripalem,530018,visakhapatnam,India,,,Chandra Shekhar,,,,,
4213,Ramakrishna School,state-board-schools,0891 - 2769769,,,,,#58-18-21/1 & 2,Nad Kotha Road,530027,visakhapatnam,India,,,Krishna Reddy,,,,,
4214,Saraswathi Vidya Vihar,state-board-schools,0891 - 2799136,,,,,,Seethammadhara,530013,visakhapatnam,India,,,,,,,,
4215,Vijnana Bharathi of Bvk,state-board-schools,0891 - 2517076,,,,,,Gonthinavanipalem,530026,visakhapatnam,India,,,Dikshithulu,,,,,
4216,Visakha Valley School,state-board-schools,0891 - 2520118,,,,,,Arilova,530040,visakhapatnam,India,visakhavalleyschoolvsp@gmail.com,http://www.visakhavalleyschool.com,,,,,,
4217,Vijayasri Res School,state-board-schools,0891 - 2573127,,,,,#10-3-3-2/2,Asilmetta,530003,visakhapatnam,India,,,Vijaya,,,,,
4218,Sri Satya Sai Vidya Vihar,state-board-schools,0891 - 2552041, 0891 - 2783905,,,,,MVP Colony,530017,visakhapatnam,India,,,Nageshwar Rao,,"State Board Schools , CBSE High Schools , CBSE Primary Schools , ",,,
4219,A U English Medium School,state-board-schools,0891 - 2798809,,,,,,Andhra University Entrance Road,530003,visakhapatnam,India,,,,,,,,
4220,Apoorva Public School,state-board-schools,0891 - 3092597,,,,,,Gopalapatnam,530027,visakhapatnam,India,,,,,,,,
4221,Apswr School For Girls,state-board-schools,0891 - 2521795,,,,,,Vepagunta,530029,visakhapatnam,India,,,,,,,,
4222,Arunodaya Public School,state-board-schools,0891 - 2761570,,,,,,Gajuwaka,530026,visakhapatnam,India,,,,,,,,
4223,B B V High School,state-board-schools,0891 - 6667631,,,,,2nd Floor,Port Area,530001,visakhapatnam,India,,,Kamala,,,,,
4224,B V K High School,state-board-schools,0891 - 2551677, 0891 - 2563798,,,,,Dwaraka Nagar,530016,visakhapatnam,India,,,Ram Chandra Raju,,,,,
4225,Bharatiya Vidya Bhavan Public School,state-board-schools,0891 - 2553270, 0891 - 2798029,,,,,Narasimha Nagar,530024,visakhapatnam,India,bvb@yahoo.com,http://www.bhavanchennai.org,J. Shyamala,,,,,
4226,Chaitanya Public School,state-board-schools,0891 - 2510387,,,,,,Gajuwaka,530026,visakhapatnam,India,,,,,,,,
4227,Government Residential School For Visually,state-board-schools,0891 - 2798374,,,,,,Rushikonda,530045,visakhapatnam,India,,,,,,,,
4228,Jdp Visakha Residential School,state-board-schools,0891 - 2540176,,,,,#47-1-102,Dwaraka Nagar,530016,visakhapatnam,India,,,,,,,,
4229,M N R School,state-board-schools,0891 - 2540517, 0891 - 2711728,,,,,Dada Gardens,530020,visakhapatnam,India,,,,,"Coaching & Tuitions , Enterprise Training , Home & Private Tuitions , Big Data Analytics Online Training , Law Entrance Coaching , Home Tutors for Class I-V , R Analytics Online Training , SET Entrance Coaching , Home Tutors for Class VI-X , B.Com Home Tutors , B.Sc Home Tutors , BE Home Tuitions , Biology Home Tuitions for school , Chemistry Home Tuitions for school , Hindi Home Tuitions , English Home Tuitions for school , Physics Home Tuitions for school , Economics Home Tuitions , BBA Home Tuitions , MBA Home Tuitions , ICWA Home Tuitions , MCA Home Tuitions , Foreign Languages Coaching , GMAT Private Tuitions , CA Home Tuitions , Maths Home Tuitions for school , CAT Coaching , IIT Engineering Entrance Coaching , IAS Entrance Coaching , College Tuitions for Accounts, Finance, Statistics , Tuitions for College Subjects , School Tuitions for Math, Physics, Chemistry , School Tuitions for Accounts, Finance, Statistics , School Tuitions for All Subjects , Spoken English Classes , Music & Dance & Arts Classes , GRE Coaching , SAT Coaching , Medical Entrance Coaching , Chartered Accountant Coaching , Spoken Hindi Classes , NIFT/NID/CEED/FDDI Training , Banking Tuitions , Handwriting, Spelling & Reading Classes , Mass Communication Training , MBA & BBA Coaching , 2nd Year PUC Coaching , College Tuitions for Maths , College Tuitions for Physics , College Tuitions for Chemistry , ",,,"BE Home Tuitions , Biology Home Tuitions for school , CA Home Tuitions , CAT Coaching , Chartered Accountant Coaching , Chemistry Home Tuitions for school , College Tuitions for Accounts, Finance, Statistics , College Tuitions for Chemistry , College Tuitions for Maths , College Tuitions for Physics , Economics Home Tuitions , English Home Tuitions for school , Foreign Languages Coaching , GMAT Private Tuitions , GRE Coaching , Handwriting, Spelling & Reading Classes , Hindi Home Tuitions , Home Tutors for Class I-V , Home Tutors for Class VI-X , IAS Entrance Coaching , ICWA Home Tuitions , IIT Engineering Entrance Coaching , Mass Communication Training , Maths Home Tuitions for school , MBA & BBA Coaching , MBA Home Tuitions , MCA Home Tuitions , Medical Entrance Coaching , Music & Dance & Arts Classes , NIFT/NID/CEED/FDDI Training , Physics Home Tuitions for school , R Analytics Online Training , SAT Coaching , School Tuitions for Accounts, Finance, Statistics , School Tuitions for All Subjects , School Tuitions for Math, Physics, Chemistry , SET Entrance Coaching , Spoken English Classes , Spoken Hindi Classes , Tuitions for College Subjects , "
4230,Prgyna Grammar School,state-board-schools,0891 - 2782790,,,,,,MVP Colony,530017,visakhapatnam,India,,,Thresimma Rao,,,,,
4231,Sri Sai Brindavan Vidyaniketan,state-board-schools,0891 - 2561405,,,,,,Akkayyapalem,530016,visakhapatnam,India,,,,,,,,
4232,Sri Sarada Vidya Nilayam,state-board-schools,0891 - 2553031,,,,,,Kala Nagar,530013,visakhapatnam,India,,,,,,,,
4233,St Mary`s High School,state-board-schools,0891 - 3095519,,,,,,Doctors Colony,530013,visakhapatnam,India,,,,,,,,
4234,Suryodaya Public School,state-board-schools,0891 - 2503852,,,,,,Akkayyapalem,530024,visakhapatnam,India,,,,,,,,
4235,Vignan Talent School,state-board-schools,0891 - 2762303, 9866066148,,,,,Sriharipuram,530011,visakhapatnam,India,,,Bramha Reddy,,,,,
4236,Visakha Central School,state-board-schools,0891 - 2587759,,,,,,Gajuwaka,530026,visakhapatnam,India,,,,,,,,
4237,Won World School,state-board-schools,0891 - 2566174, 0891 - 2718961,,,,#4-47-7,L.B. Colony,530017,visakhapatnam,India,,,KS Reddy,,,,,
4238,Narayana Junior College,state-board-schools,0891 - 2757766, 0891 - 2572749, 9912349739,,,#58-1-396,Seethammapeta,530002,visakhapatnam,India,,,G. Srinivas Rao,,"State Board Higher Secondary Schools , ",,,
4239,Narayana Junior College,state-board-schools,8916533084, 9912343102,,,,#48-14-51,Dwaraka Nagar,530016,visakhapatnam,India,,,Dr. P. Krishna Kishor,,"State Board Higher Secondary Schools , ",,,
4240,Narayana Junior College,state-board-schools,0891 - 2714183, 0891 - 2714193, 9912343896,,,#10-50-58/1,Ram Nagar,530002,visakhapatnam,India,vsp_hiit@yahoo.co.in,http://www.narayanagroup.com,,,"State Board Higher Secondary Schools , ",,,
4241,Narayana Junior College,state-board-schools,0891 - 2533999, 0891 - 2710943, 9912343664,,,#10-51-15,Asilmetta,530003,visakhapatnam,India,vspnmk@gmail.com,http://www.narayanagroup.com,,,"State Board Higher Secondary Schools , ",,,
4242,Narayana Junior College,state-board-schools,0891 - 2501135, 0891 - 2742280, 9912343831,,,#10-1-33/2,Asilmetta,530003,visakhapatnam,India,info@narayanagroup.com,http://www.narayanagroup.com,,,"State Board Higher Secondary Schools , ",,,
4243,Ravindra Bharathi School,state-board-schools,0891 - 2555118, 8096699593,,,,,MVP Colony,530017,visakhapatnam,India,,http://www.rbschools.in,Lakshmi,Monday - Sunday : 24 Hrs,"State Board High Schools , State Board Primary Schools , ",,,
4244,Elegant English Medium School,state-board-schools,0891 - 2735067, 0891 - 2783036,,,,Plot No. 76,Mvp Colony,530009,visakhapatnam,India,,,Vijaya,,"State Board High Schools , State Board Higher Secondary Schools , ",,,
4245,NRIS Indian Springs,state-board-schools,0891 - 2495778,,,,,"No. 4-46-16, Plot No. 9",Pedda Waltair,530017,visakhapatnam,India,vizagprincipal@indiansprings.in,http://www.indiansprings.in,Rama Devi,Monday - Saturday: 9 AM - 4 PM,"State Board Schools , CBSE High Schools , CBSE Primary Schools , State Board Primary Schools , ",,,"CBSE Day Schools , Co-curricular Activities CBSE Schools , Co-Education CBSE Schools , Digital Classroom CBSE Schools , English Medium CBSE Schools , School Bus Facility CBSE Schools , Sports Facility CBSE Schools , "
4246,AU English Medium School,state-board-schools,0891 - 2798809, 0891 - 2798809,,,,,Chinna Waltair,530003,visakhapatnam,India,auemshool@gmail.com,,Hemalatha,Monday - Saturday: 9 AM - 4 PM,"State Board High Schools , ",,,
4247,Amar Concept School,state-board-schools,0891 - 2548898, 0891 - 2548898, 0891 - 2548899, 9848936937, 9441322999,Door No. 58-18-87,Nad Kotha Road,530027,visakhapatnam,India,,http://www.amarconceptschool.com,Sunitha,Monday - Saturday: 7.30 AM - 5.30 PM ( Lunch: 12.30 AM - 1.30 PM ),"State Board Schools , CBSE Primary Schools , State Board Higher Secondary Schools , ",,,
4248,The Presidential School,cbse-schools,0891 - 2700085, 0891 - 2534681,,,,Door No. 50-121-27/1,Seethammadhara,530013,visakhapatnam,India,presidential_ld@rocketmail.com,,Anand,Monday - Saturday: 9 AM - 5 PM,"CBSE High Schools , CBSE Higher Secondary Schools , ",,,"Boarding CBSE Schools , CBSE Day Schools , Regional Language CBSE Schools , School Bus Facility CBSE Schools , Sports Facility CBSE Schools , "
4249,Dr. KKR Gowtham International School,cbse-schools,0891 - 2715199, 0891 - 2716199, 9160444004,,,,L.B. Colony,530017,visakhapatnam,India,,http://www.kkrgowtham.com,C.J. Chako,,"State Board Schools , CBSE Higher Secondary Schools , CBSE Primary Schools , State Board Higher Secondary Schools , State Board Primary Schools , ",,,
4250,Ravindra Bharathi School,cbse-schools,8096699733,,,,,Door No. 30-6-26,Dada Gardens,530020,visakhapatnam,India,,http://www.rbschools.in,,,"CBSE High Schools , CBSE Primary Schools , ",,,
4251,SR Digi School,cbse-schools,0891 - 2547070, 9642822322,,,,"No. 45-51-10,",Akkayyapalem,530016,visakhapatnam,India,,http://www.srdigischool.com,P.L.eelaSreedhar,Monday - Saturday: 8.30 AM - 5 PM,"State Board Schools , CBSE Primary Schools , State Board High Schools , ",,,
4252,SR Digi School,cbse-schools,0891 - 2593594, 9493942552,,,,,Gajuwaka,530026,visakhapatnam,India,,http://www.srdigischool.com,,,"CBSE High Schools , CBSE Primary Schools , ",,,
4253,Narayana IIT Olympiad School,cbse-schools,0891 - 2500237, 8500265711, 9160299261,,,No. 9-21-2,,,visakhapatnam,India,niop.iit@narayanainfo.com,http://www.narayanaolympiadschool.org,Someshwar Rao,Monday - Saturday: 8.30 AM - 5 PM,"ICSE Schools , State Board Schools , CBSE Primary Schools , State Board High Schools , State Board Primary Schools , ICSE Primary Schools , ",,,"CBSE Day Schools , Co-curricular Activities CBSE Schools , Co-Education ICSE Schools , Digital Classroom CBSE Schools , English Medium CBSE Schools , Kindergarten CBSE Schools , School Bus Facility CBSE Schools , Social Service Activity CBSE Schools , Sports Facility CBSE Schools , "
4254,Greenways Academy,cbse-schools,0891 - 2718256,,,,,,Marripalem,530018,visakhapatnam,India,bgowrib@yahoo.com,,B. Gowrishwari,Monday - Sunday : 24 Hrs,"CBSE Primary Schools , ",,,
4255,Sri Satya Sai Vidya Vihar,cbse-schools,0891 - 2552041, 0891 - 2783905,,,,,MVP Colony,530017,visakhapatnam,India,,,Nageshwar Rao,,"State Board Schools , CBSE High Schools , CBSE Primary Schools , ",,,
4256,Sri Prakash Vidya Niketan,cbse-schools,0891 - 2503344, 0891 - 2782585,,,,,Seethammadhara,530013,visakhapatnam,India,,,Suneeta,Monday - Saturday: 8 AM - 6.30 PM,"CBSE High Schools , CBSE Primary Schools , ",,,
4257,Kendriya Vidyalaya,cbse-schools,0891 - 2577136,,,,,"Gandhigram, Nausenabagh",Malkapuram,530005,visakhapatnam,India,pkvno2i@rediffmail.com,,,,,,,
4258,Kendriya Vidyalaya,cbse-schools,,,,,,Thatichetlapalem,Waltair,530016,visakhapatnam,India,kvwaltair@yahoo.com,,,,,,,
4259,Adarsh Public School,cbse-schools,,,,,,Vinayak Nagar,Pedagantyada ,530044,visakhapatnam,India,adarshedu@bsnl.in,,,,,,,
4260,Kendriya Vidyalaya,cbse-schools,0891 - 2886043,,,,,Visakhapatnam Steel Plant Visakhapatnam Andhra Pradesh,,,visakhapatnam,India,kvwaltair@yahoo.com,,,,,,,
4261,Ameya World School,cbse-schools,,,,,,Sangivalasa,Sanjeevaiah Colony,531162,visakhapatnam,India,office@ameyaworldschool.in,http://www.ameyaworldschool.in,,,,,,
4262,Kendriya Vidyalaya,cbse-schools,0891 - 2899002,,,,,"Ins Kalinga, Post Bheemunipatnam (Via)",Chepala Uppada,531163,visakhapatnam,India,smrao@md3.vsnl.net.in,http://www.kvno1kota.nic,,,,,,
4263,Bal Bharati Public School,cbse-schools,0891 - 2283214,,,,,Sim Hadri Ntpc Township,Ntpc Deepanjali Nagar,600090,visakhapatnam,India,,,,,,,,
4264,Bhpv Senior Secondary School,cbse-schools,,,,,,Bhpv Township Bhpv Limited,,,visakhapatnam,India,ed.bhpv@rmj.sprintrpg.ems.vsnl.net.in,,,,,,,
4265,DAV Public School,cbse-schools,0891 - 2518407,,,,,Sector-Iii Ukkunagaram,,,visakhapatnam,India,davcpsukkunagaramvsp@yahoo.co.in,,,,,,,
4266,DAV Public School,cbse-schools,0891 - 2513496,,,,,No. 4-130,,,visakhapatnam,India,davsnvsp@yahoo.com,,,,,,,
4267,Delhi Public School,cbse-schools,0891 - 2510686, 0891 - 2886880,,,,Vsp Sector Viii Ukkunagaram Sector-Viii Ukkunagaram Andhra Pradesh,,,visakhapatnam,India,b.aruna.dps@gmail.com,http://www.dpsvisakhapatn,,,,,,
4268,Kendriya Vidyalaya,cbse-schools,0891 - 2558267,,,,,Naval Armament Depot,,,visakhapatnam,India,kvnadvsp9@yahoo.co.uk,,,,,,,
4269,Jawahar Navodaya Vidyalaya,cbse-schools,0891 - 2739245,,,,,Kommadi,,,visakhapatnam,India,jnvvisakhapatnam@yahoo.com,,,,,,,
4270,Jawahar Navodaya Vidyalaya,cbse-schools,0891 - 2277726,,,,,Kiltampalem,,,visakhapatnam,India,,,,,,,,
4271,Kakatiya Public School,cbse-schools,0891 - 2517266, 0891 - 2516757,,,,B C Road,,,visakhapatnam,India,kakatiyapublicschool@gmail.com,http://kakatiyaschool,,,,,,
4272,Kendriya Vidyalaya No 1,cbse-schools,0891 - 2558357,,,,,"Sri Vijay Nagar, 104 Area Industrial Estate",,,visakhapatnam,India,kv1svn@sancharnet.in,http://kv1svn@sancharnet.in,,,,,,
4273,Kendriya Vidyalaya No 1,cbse-schools,0891 - 2577549,,,,,"Nausenabaugh, Gandhigram",,,visakhapatnam,India,kv1nsb@rediffmail.com,http://kv1nsb@rediffmail.com,,,,,,
4274,Kendriya Vidyalaya No 2,cbse-schools,08923 - 577614,,,,,Nausenabagh,Gandhigram,530005,visakhapatnam,India,kv2principal@yahoo.com,,,,,,,
4275,Kendriya Vidyalaya No 2,cbse-schools,08923 - 558038,,,,,"No. 104, Sri Vijaya Nagar Industrial Estate",,,visakhapatnam,India,kv2svn@rediffmail.com,,,,,,,
4276,Little Angels School,cbse-schools,,,,,,"Sector 9, Ukkungram",,,visakhapatnam,India,,,,,,,,
4277,Little Angles School,cbse-schools,0891 - 2553231, 0891 - 2550456,,,,Sector 3,,,visakhapatnam,India,bvm_elmk@yahoo.com,,,,,,,
4278,Naval Public School No 2,cbse-schools,08923 - 559575,,,,,"Sri Vijay Nagar Colony, 104 Area, Maipalam",,,visakhapatnam,India,,,,,,,,
4279,Navy Children School,cbse-schools,0891 - 2740283,,,,,Nausenabaugh,,,visakhapatnam,India,ncs_visakha@rediffmail.com,http://www.ncsnavy.com,,,,,,
4280,Oakridge International School,cbse-schools,0891 - 2511111,,,,,"National Highway 5, Tagarapuvalasa, Singanabanda, Bhimunipatnam Mandal",,,visakhapatnam,India,westwoodinfo@oakridge.in,http://www.wwis.in,,,,,,
4281,Rishi Vidyalaya,cbse-schools,08923 - 556397,,,,,"Gorukulam, Boduvalasa,Savvhavaram",,,visakhapatnam,India,ssylakshmi2000@yahoo.com,,,,,,,
4282,Sri Chaitanya Techno School,cbse-schools,0891 - 2717500,,,,,"Gambeeram Boya Palem, Ananda Puram",,,visakhapatnam,India,srichaitanyatechnoschool@gmail.com,http://www.srichaitanyatechnoschools.com,,,,,,
4283,Sri Chaitanya Vidya Niketan,cbse-schools,0891 - 2016866,,,,,Marikavalasa,Madhurawada,530041,visakhapatnam,India,webmaster@srichaitanya.net,http://srichaitanya.net,,,,,,
4284,Sri Prakash Vidya Niketan,cbse-schools,08854 - 254544,,,,,Puram,,,visakhapatnam,India,sriprakash_educ@yahoo.com,http://www.sriprakash.org,,,,,,
4285,Sri Sathya Sai Vidya Vihar,cbse-schools,0891 - 552041,,,,,"Sector 8, Muvvalavanipalem Colony",,,visakhapatnam,India,nbpschool@gmail.com,http://www.nbps.in,,,,,,
4286,The Presidential School,cbse-schools,9866565451,,,,,"Survey No. 274/18 & 22, Kapuluppada, K Nagerapalam",,,visakhapatnam,India,presidential_ld@rocketmail.com,,,,,,,
4287,Timpany Secondary School,cbse-schools,0891 - 2455157, 0891 - 2597153,,,,Cbm Compound,,,visakhapatnam,India,stjohnsps@gmail.com,,,,,,,
4288,Vignan Vidyalayam,cbse-schools,8933224041,,,,,Bhimili Beach Road,,,visakhapatnam,India,tsbabu_2511@yahoo.com,,,,,,,
4289,Vijnana Vihara Residential School,cbse-schools,0891 - 2892130, 0891 - 2892157,,,,Gudilova,Pendurthi,531173,visakhapatnam,India,vv_rs@yahoo.com,,,,,,,
4290,Vikas Vidyaniketan,cbse-schools,,,,,,No. 1-1-1/1,Sheela Nagar,12,visakhapatnam,India,,,,,,,,
4291,Ravijis Little Champs School,cbse-schools,9966022238,,,,,"No. 48, Last Bus Stop, Vuda Colony",Madhavadhara,530001,visakhapatnam,India,littlechampsschool@gmail.com,http://www.littlechampsschoolvsp.com,Ravi,Monday - Saturday: 9 AM - 4 PM,"Playschools , CBSE High Schools , CBSE Primary Schools , ","Ravijis Little Champs is known for its quality services and timelines. We address your needs with utmost care and ensure your satisfaction in whatever we do. Give us an opportunity to serve you. We will gift you with a pleasant experience. We value the trust and beliefs vested in us by our customers and professional contacts, and give a dedicated service with an honest and direct approach in all our dealings. We look forward to your business and hope you would give us a chance to serve. Contact us now.  ",,"AC Facility CBSE Schools , Activity Room Facility Palyschools , Bus Facility Playschools , CBSE Day Schools , English Medium CBSE Schools , Gym & Fitness CBSE Schools , Hindi Medium CBSE School , Kindergarten CBSE Schools , Nursery Schools , Playground Facility Playschools , School Bus Facility CBSE Schools , Social Service Activity CBSE Schools , Sports Facility CBSE Schools , Swimming Pool Facility CBSE Schools , Toy Room Playschools , "
4292,Dr. KKRs Gowtham Concept School,cbse-schools,0891 - 2703199, 0891 - 2704199, 9160444403, 9642840777,,,Kurmannapalem,530046,visakhapatnam,India,,http://www.kkrgowtham.com,,Monday - Saturday: 8.30 AM - 3.30 PM,"CBSE High Schools , CBSE Primary Schools , ",,,"CBSE Day Schools , Kindergarten CBSE Schools , School Bus Facility CBSE Schools , Social Service Activity CBSE Schools , Sports Facility CBSE Schools , "
4293,Minerva Eduactional Institutions,cbse-schools,0891 - 6565655, 0891 - 2555655, 0891 - 2757777,,,No. 49-53-10,Seethammadhara,530013,visakhapatnam,India,,http://www.minerva.edu.in,,,"CBSE Higher Secondary Schools , CBSE Primary Schools , ",,,
4294,Shiridi Sai Vidya Vihar,cbse-schools,0891 - 2715278, 0891 - 2712927, 0891 -  2714452,,,,Srinivasa Nagar,530016,visakhapatnam,India,,,,,"CBSE High Schools , CBSE Higher Secondary Schools , ",,,
4295,Shemrock & Shemford Group of Schools,cbse-schools,9866998899,,,,,Door No. 55-42-3,Seethammadhara,530013,visakhapatnam,India,vizag@shemford.com,http://www.shemford.com,Datla Raghu Rama Raju,Monday - Saturday: 8 AM - 1 PM,"Playschools , International Schools , CBSE Primary Schools , ","SHEMFORD is a pioneer in quality education. With an in-house R&D division, which is constantly tuned into the newest of technologies and with the best team of academicians, SHEMFORD is dedicated to constantly upgrading its unique & futuristic ShemEduMAXTM system of education, which is one of its kind in the school fraternity. SHEMFORD is a dynamic educational community created by the interaction of committed faculty and enthusiastic parents.The vision of SHEMFORD Futuristic Schools extends beyond the narrow walls of classroom and textbooks. At SHEMFORD, we believe that education is all about preparing and equipping young people for life and not just for school. With this philosophy as our source of inspiration, we aim to provide a stimulating environment wherein children enjoy learning and can also perform to the best of their abilities, in all areas of our extensive curriculum. By providing inclusive education at SHEMFORD Futuristic Schools, we also aim to build capacity in our children to accept the challenges of life.At SHEMFORD, we have always believed that both teachers and parents play an important role in the growth and development of children and it is only through open communication, fruitful discussions and active participation that we can together lay a strong foundation for our children.  ","http://localserviceassets.blob.core.windows.net:80/businessphoto-t/1-e84071b5-9673-46bc-ad08-4c72c25a5e98.jpg , http://localserviceassets.blob.core.windows.net:80/businessphoto-t/3-c9c6facf-294d-4fd9-a2df-ac29f1857b68.jpg , http://localserviceassets.blob.core.windows.net:80/businessphoto-t/5-cd5c8380-43da-44e3-9ded-1af891bda378.jpg , http://localserviceassets.blob.core.windows.net:80/businessphoto-t/6-67eb83db-aec3-494e-9c75-e60602567fcb.png , http://localserviceassets.blob.core.windows.net:80/businessphoto-t/7-5ae3a151-fdea-40fc-a403-7d698135aa64.png , http://localserviceassets.blob.core.windows.net:80/businessphoto-m/1-e84071b5-9673-46bc-ad08-4c72c25a5e98.jpg , http://localserviceassets.blob.core.windows.net:80/businessphoto-m/3-c9c6facf-294d-4fd9-a2df-ac29f1857b68.jpg , http://localserviceassets.blob.core.windows.net:80/businessphoto-m/5-cd5c8380-43da-44e3-9ded-1af891bda378.jpg , http://localserviceassets.blob.core.windows.net:80/businessphoto-m/6-67eb83db-aec3-494e-9c75-e60602567fcb.png , http://localserviceassets.blob.core.windows.net:80/businessphoto-m/7-5ae3a151-fdea-40fc-a403-7d698135aa64.png , ","AC Facility CBSE Schools , Activity Room Facility Palyschools , Bus Facility Playschools , CBSE Day Schools , Digital Classroom CBSE Schools , English Medium CBSE Schools , Gym & Fitness CBSE Schools , Kindergarten CBSE Schools , Nursery Schools , Playground Facility Playschools , Preschools , Social Service Activity CBSE Schools , Sports Facility CBSE Schools , Toy Room Playschools , "
4296,NRIS Indian Springs,cbse-schools,0891 - 2495778,,,,,"No. 4-46-16, Plot No. 9",Pedda Waltair,530017,visakhapatnam,India,vizagprincipal@indiansprings.in,http://www.indiansprings.in,Rama Devi,Monday - Saturday: 9 AM - 4 PM,"State Board Schools , CBSE High Schools , CBSE Primary Schools , State Board Primary Schools , ",,,"CBSE Day Schools , Co-curricular Activities CBSE Schools , Co-Education CBSE Schools , Digital Classroom CBSE Schools , English Medium CBSE Schools , School Bus Facility CBSE Schools , Sports Facility CBSE Schools , "
4297,Amar Concept School,cbse-schools,0891 - 2548898, 0891 - 2548898, 0891 - 2548899, 9848936937, 9441322999,Door No. 58-18-87,Nad Kotha Road,530027,visakhapatnam,India,,http://www.amarconceptschool.com,Sunitha,Monday - Saturday: 7.30 AM - 5.30 PM ( Lunch: 12.30 AM - 1.30 PM ),"State Board Schools , CBSE Primary Schools , State Board Higher Secondary Schools , ",,,
4298,Siva Sivani Public School,icse-schools,0891 - 2550192, 9908301714,,,,No. 4-70-11/1,,,visakhapatnam,India,,http://www.sivasivanipublicschools.org,K.Umashankar,Monday - Saturday: 9 AM - 4 PM,"ICSE Primary Schools , ICSE High Schools , ",,,
4299,Narayana IIT Olympiad School,icse-schools,0891 - 2500237, 8500265711, 9160299261,,,No. 9-21-2,,,visakhapatnam,India,niop.iit@narayanainfo.com,http://www.narayanaolympiadschool.org,Someshwar Rao,Monday - Saturday: 8.30 AM - 5 PM,"ICSE Schools , State Board Schools , CBSE Primary Schools , State Board High Schools , State Board Primary Schools , ICSE Primary Schools , ",,,"CBSE Day Schools , Co-curricular Activities CBSE Schools , Co-Education ICSE Schools , Digital Classroom CBSE Schools , English Medium CBSE Schools , Kindergarten CBSE Schools , School Bus Facility CBSE Schools , Social Service Activity CBSE Schools , Sports Facility CBSE Schools , "
4300,Good Shepherd E.M. School,icse-schools,08924 - 230777,,,,,,,,visakhapatnam,India,goodshepherd_1978@rediffmail.com,,I Faith,,,,,
4301,St. Josephs High School,icse-schools,08936 - 249005,,,,,,,,visakhapatnam,India,sjhsaraku@gmail.com,,Vianney,,,,,
4302,Kotak Salesian School,icse-schools,0891 - 2754826, 0891 - 2713534,,,,,,,visakhapatnam,India,kotaksalesianschoolap050@gmail.com,,Fr George Alappatt,,,,,
4303,Nava Jeevan Public School,icse-schools,0891 - 2229569, 0891 - 2228089,,,,"Post Office Box No. 3, Charity Center, Bhimli",,,visakhapatnam,India,mktitus@hotmail.com,,Victor Joseph,,,,,
4304,Fort Catholic Girls School,icse-schools,0891 - 2502981,,,,,Old Post Office,,,visakhapatnam,India,fortcatholic_school@rediffmail.com,,Rosily,,,,,
4305,St. Francis School,icse-schools,0891 - 2781481,,,,,,,,visakhapatnam,India,sfstormadhurawada@yahoo.com,,PC Thomas,,,,,
4306,St. Josephs Secondary School,icse-schools,0891 - 2741632,,,,,,Malkapuram,530011,visakhapatnam,India,stjosephmkp@gmail.com,,Staji George,,,,,
4307,Spring Dales Public School,icse-schools,0891 - 2517485,,,,,"No. 2-72, High School Road",,,visakhapatnam,India,springdalesvsp@hotmail.com,,Prasad Kumar Chatterjee,,,,,
4308,De Paul School,icse-schools,0891 - 2708271, 0891 - 2887610,,,,Sector Viii,Ukkunagaram,530032,visakhapatnam,India,depauls32@yahoo.com,,Vincent Edakkarot,,,,,
4309,Bethany School,icse-schools,0891 - 2706121, 0891 - 2567722,,,,No. 10-50-29,Waltair Main Road,530002,visakhapatnam,India,bethy_sch@yahoo.com,,Evangeline Ranjan,,,,,
4310,Siva Sivani Public School,icse-schools,0891 - 2767822,,,,,,Ukkunagaram,530009,visakhapatnam,India,contact@sivasivanipublicschools.org,http://www.sivasivanipublicschools.org,,Monday - Saturday: 9 AM - 4 PM,"ICSE Primary Schools , ICSE High Schools , ",,,
4311,Little Angel School,icse-schools,0891 - 2751222,,,,,,Ukkunagaram,530032,visakhapatnam,India,littleangel.ukku.vsp@gmail.com,http://www.littleangels.org.in,Little Angel Schoo,Monday - Saturday: 9.30 AM - 4 PM,"ICSE Primary Schools , ",,,
4312,Vijayam Techno School,international-schools,9553955575, 9553671999,,,,D.No. 1-33,Madhurawada,530041,visakhapatnam,India,vijayamtechnoschool@gmail.com,http://www.vijayamtechnoschool.in/,Rama Krishna,Monday - Saturday: 8.30 AM - 4.30 AM,,"India is the cradle of the human race, the birthplace of human speech, the mother of history, the grand mother of legend and the great grand mother of tradition. Our most valuable and most structure materials in the history of man are treasured up only in India. In the same way the members of board at Dr. K. Vijay Laxmi Educational Society lay down plans of growth of institution as a pinnacle in Education Sector.We look onward to your business and hope you would give us a chance to serve. Contact us for further details.  ",,
4313,Shemrock & Shemford Group of Schools,international-schools,9866998899,,,,,Door No. 55-42-3,Seethammadhara,530013,visakhapatnam,India,vizag@shemford.com,http://www.shemford.com,Datla Raghu Rama Raju,Monday - Saturday: 8 AM - 1 PM,"Playschools , International Schools , CBSE Primary Schools , ","SHEMFORD is a pioneer in quality education. With an in-house R&D division, which is constantly tuned into the newest of technologies and with the best team of academicians, SHEMFORD is dedicated to constantly upgrading its unique & futuristic ShemEduMAXTM system of education, which is one of its kind in the school fraternity. SHEMFORD is a dynamic educational community created by the interaction of committed faculty and enthusiastic parents.The vision of SHEMFORD Futuristic Schools extends beyond the narrow walls of classroom and textbooks. At SHEMFORD, we believe that education is all about preparing and equipping young people for life and not just for school. With this philosophy as our source of inspiration, we aim to provide a stimulating environment wherein children enjoy learning and can also perform to the best of their abilities, in all areas of our extensive curriculum. By providing inclusive education at SHEMFORD Futuristic Schools, we also aim to build capacity in our children to accept the challenges of life.At SHEMFORD, we have always believed that both teachers and parents play an important role in the growth and development of children and it is only through open communication, fruitful discussions and active participation that we can together lay a strong foundation for our children.  ","http://localserviceassets.blob.core.windows.net:80/businessphoto-t/1-e84071b5-9673-46bc-ad08-4c72c25a5e98.jpg , http://localserviceassets.blob.core.windows.net:80/businessphoto-t/3-c9c6facf-294d-4fd9-a2df-ac29f1857b68.jpg , http://localserviceassets.blob.core.windows.net:80/businessphoto-t/5-cd5c8380-43da-44e3-9ded-1af891bda378.jpg , http://localserviceassets.blob.core.windows.net:80/businessphoto-t/6-67eb83db-aec3-494e-9c75-e60602567fcb.png , http://localserviceassets.blob.core.windows.net:80/businessphoto-t/7-5ae3a151-fdea-40fc-a403-7d698135aa64.png , http://localserviceassets.blob.core.windows.net:80/businessphoto-m/1-e84071b5-9673-46bc-ad08-4c72c25a5e98.jpg , http://localserviceassets.blob.core.windows.net:80/businessphoto-m/3-c9c6facf-294d-4fd9-a2df-ac29f1857b68.jpg , http://localserviceassets.blob.core.windows.net:80/businessphoto-m/5-cd5c8380-43da-44e3-9ded-1af891bda378.jpg , http://localserviceassets.blob.core.windows.net:80/businessphoto-m/6-67eb83db-aec3-494e-9c75-e60602567fcb.png , http://localserviceassets.blob.core.windows.net:80/businessphoto-m/7-5ae3a151-fdea-40fc-a403-7d698135aa64.png , ","AC Facility CBSE Schools , Activity Room Facility Palyschools , Bus Facility Playschools , CBSE Day Schools , Digital Classroom CBSE Schools , English Medium CBSE Schools , Gym & Fitness CBSE Schools , Kindergarten CBSE Schools , Nursery Schools , Playground Facility Playschools , Preschools , Social Service Activity CBSE Schools , Sports Facility CBSE Schools , Toy Room Playschools , "
4314,Eurokids,kindergarten-kg-schools,9393129009,,,,,No. 9-23-2 ,Vishakhapatnam Bus Station,531001,visakhapatnam,India,info@eurokidsindia.com,http://www.eurokidsindia.com,N.V. Ramakrishna Reddy,"Monday - Friday: 9 AM - 2.30 PM, Saturday: 9 AM - 12 PM","Kindergarten (KG) Schools , ",,,
4315,Eurokids,kindergarten-kg-schools,9885022899, 9989312958,,,,No. 14-36-3/1,Vishakhapatnam Bus Station,531001,visakhapatnam,India,info@eurokidsindia.com,http://www.eurokidsindia.com,Gnyaneshwar Rao,"Monday - Friday: 9 AM - 2.30 PM, Saturday: 9 AM - 12 PM","Kindergarten (KG) Schools , ",,,
4316,Samrudh Enterprises,kindergarten-kg-schools,9000019731,,,,,,New Gajuwaka,530026,visakhapatnam,India,,,,,,,,
4317,Bachpan A Play School,matriculation-schools,9052243456, 9052283456,,,,Vuda Colony ,Gajuwaka,530026,visakhapatnam,India,response@bachpanglobal.com,http://www.bachpanglobal.com,Sravani,Monday - Saturday: 9 AM - 12 PM,"Matriculation Primary Schools , ",,,"Daycare Centres , English Medium Playschools , "
4318,AP Social Welfare Residential Schools,matriculation-schools,8008001392,,,,,,Narsipatnam,531116,visakhapatnam,India,apswrs@gmail.com,,Premarao,Monday - Saturday: 9 AM - 4 PM,"Filmmaking Schools , Matriculation Higher Secondary Schools , ",,,
4319,Amar Concpet School,matriculation-schools,0891 - 2548891, 9603366992, 9603366982,,,Plot No. 26-42-2,Gajuwaka,530026,visakhapatnam,India,amar.gajuwaka@gmail.com,http://www.amarconceptschool.com,G. Amar,Monday - Saturday: 8.30 AM - 4 PM ( Lunch: 12 PM - 1 PM ),"Matriculation High Schools , ",,,
4320,Shemrock & Shemford Group of Schools,play-schools,9866998899,,,,,Door No. 55-42-3,Seethammadhara,530013,visakhapatnam,India,vizag@shemford.com,http://www.shemford.com,Datla Raghu Rama Raju,Monday - Saturday: 8 AM - 1 PM,"Playschools , International Schools , CBSE Primary Schools , ","SHEMFORD is a pioneer in quality education. With an in-house R&D division, which is constantly tuned into the newest of technologies and with the best team of academicians, SHEMFORD is dedicated to constantly upgrading its unique & futuristic ShemEduMAXTM system of education, which is one of its kind in the school fraternity. SHEMFORD is a dynamic educational community created by the interaction of committed faculty and enthusiastic parents.The vision of SHEMFORD Futuristic Schools extends beyond the narrow walls of classroom and textbooks. At SHEMFORD, we believe that education is all about preparing and equipping young people for life and not just for school. With this philosophy as our source of inspiration, we aim to provide a stimulating environment wherein children enjoy learning and can also perform to the best of their abilities, in all areas of our extensive curriculum. By providing inclusive education at SHEMFORD Futuristic Schools, we also aim to build capacity in our children to accept the challenges of life.At SHEMFORD, we have always believed that both teachers and parents play an important role in the growth and development of children and it is only through open communication, fruitful discussions and active participation that we can together lay a strong foundation for our children.  ","http://localserviceassets.blob.core.windows.net:80/businessphoto-t/1-e84071b5-9673-46bc-ad08-4c72c25a5e98.jpg , http://localserviceassets.blob.core.windows.net:80/businessphoto-t/3-c9c6facf-294d-4fd9-a2df-ac29f1857b68.jpg , http://localserviceassets.blob.core.windows.net:80/businessphoto-t/5-cd5c8380-43da-44e3-9ded-1af891bda378.jpg , http://localserviceassets.blob.core.windows.net:80/businessphoto-t/6-67eb83db-aec3-494e-9c75-e60602567fcb.png , http://localserviceassets.blob.core.windows.net:80/businessphoto-t/7-5ae3a151-fdea-40fc-a403-7d698135aa64.png , http://localserviceassets.blob.core.windows.net:80/businessphoto-m/1-e84071b5-9673-46bc-ad08-4c72c25a5e98.jpg , http://localserviceassets.blob.core.windows.net:80/businessphoto-m/3-c9c6facf-294d-4fd9-a2df-ac29f1857b68.jpg , http://localserviceassets.blob.core.windows.net:80/businessphoto-m/5-cd5c8380-43da-44e3-9ded-1af891bda378.jpg , http://localserviceassets.blob.core.windows.net:80/businessphoto-m/6-67eb83db-aec3-494e-9c75-e60602567fcb.png , http://localserviceassets.blob.core.windows.net:80/businessphoto-m/7-5ae3a151-fdea-40fc-a403-7d698135aa64.png , ","AC Facility CBSE Schools , Activity Room Facility Palyschools , Bus Facility Playschools , CBSE Day Schools , Digital Classroom CBSE Schools , English Medium CBSE Schools , Gym & Fitness CBSE Schools , Kindergarten CBSE Schools , Nursery Schools , Playground Facility Playschools , Preschools , Social Service Activity CBSE Schools , Sports Facility CBSE Schools , Toy Room Playschools , "
4321,Ravijis Little Champs School,play-schools,9966022238,,,,,"No. 48, Last Bus Stop, Vuda Colony",Madhavadhara,530001,visakhapatnam,India,littlechampsschool@gmail.com,http://www.littlechampsschoolvsp.com,Ravi,Monday - Saturday: 9 AM - 4 PM,"Playschools , CBSE High Schools , CBSE Primary Schools , ","Ravijis Little Champs is known for its quality services and timelines. We address your needs with utmost care and ensure your satisfaction in whatever we do. Give us an opportunity to serve you. We will gift you with a pleasant experience. We value the trust and beliefs vested in us by our customers and professional contacts, and give a dedicated service with an honest and direct approach in all our dealings. We look forward to your business and hope you would give us a chance to serve. Contact us now.  ",,"AC Facility CBSE Schools , Activity Room Facility Palyschools , Bus Facility Playschools , CBSE Day Schools , English Medium CBSE Schools , Gym & Fitness CBSE Schools , Hindi Medium CBSE School , Kindergarten CBSE Schools , Nursery Schools , Playground Facility Playschools , School Bus Facility CBSE Schools , Social Service Activity CBSE Schools , Sports Facility CBSE Schools , Swimming Pool Facility CBSE Schools , Toy Room Playschools , "
4322,Vrindavan Play School,play-schools,8106477999,,,,,,Kurmannapalem,530046,visakhapatnam,India,vrindavanhelp@gmail.com,http://http:\\www.vrindavanplayschool.com,Vamsidhar,Monday - Saturday: 9 AM - 12.30 PM,,,,
4323,Ammavadi Baby Care Centre,play-schools,0891 - 2703222, 9966403635,,,,#49-58-14,Waltair Main Road,530016,visakhapatnam,India,,,Nagamani,,,,,
4324,Bugs Play School,play-schools,0891 - 2552653,,,,,,Seethammadhara,530013,visakhapatnam,India,,,,,,,,
4325,Fun & Joy Play School,play-schools,0891 - 2540163,,,,,,Pedda Waltair,530023,visakhapatnam,India,,,,,,,,
4326,Hugs N Tugs Play School & A Creative Creche,play-schools,0891 - 6643850,,,,,,Ram Nagar,530003,visakhapatnam,India,,,Mona,,,,,
4327,Little Genius The Play School,play-schools,0891 - 2797751,,,,,,Akkayyapalem,530016,visakhapatnam,India,,,,,,,,
4328,Sreevani Vidyanaikethan,play-schools,0891 - 5532697,,,,,,Seethammadhara,530013,visakhapatnam,India,,,,,,,,
4329,Kidz Garden Public School,play-schools,8501078643, 9885888423,,,,,MVP Colony,530017,visakhapatnam,India,,,,Monday - Saturday: 8.30 AM - 5.30 PM,,,,
4330,Kidz Paradise Play School,play-schools,0891 - 2595554,,,,,,Siripuram,530003,visakhapatnam,India,,,,,,,,
4331,Little Stars Play School Cum Creche,play-schools,0891 - 5543972,,,,,,MVP Colony,530017,visakhapatnam,India,,,,,,,,
4332,Nazareth Play School,play-schools,0891 - 2703998,,,,,,T.S.N. Colony,530016,visakhapatnam,India,,,,,,,,
4333,Niveditha Vidya Niketan,play-schools,0891 - 2523657,,,,,,MVP Colony,530017,visakhapatnam,India,,,,,,,,
4334,School of Wonder Kids,play-schools,0891 - 5535765,,,,,,Dwaraka Nagar,530016,visakhapatnam,India,,,,,,,,
4335,Tinny-tots Nursary School,play-schools,0891 - 2754935, 9440156628,,,,#47-1-106/1,Dwaraka Nagar,530016,visakhapatnam,India,,,Narendra Kumar,,,,,
4336,Prarambha The Montessori School,play-schools,9346451555,,,,,#15-10-7/1,Maharani Peta,530002,visakhapatnam,India,,,,,,,,
4337,Bachapan Play School,play-schools,8125184783,,,,,2nd Floor,Ram Nagar,530002,visakhapatnam,India,rk09210@gmail.com,,R. Karthik,,"Dance Classes , Western Dance Classes , Hip Hop Dance Classes , Belly Dance Classes , ",,,
4338,Maple Bear,play-schools,0891 - 2534681, 0891 - 2700085,,,,#50-102-27/1,Seethammadhara,530014,visakhapatnam,India,,http://www.maplebearindia.com,,,,,,
4339,Sunny Bunny Play School & Crech,play-schools,0891 - 2714984,,,,,"50-14/2, Ground Floor",Seethammadhara,530013,visakhapatnam,India,,,Laksmi,Monday - Saturday: 8 AM - 8 PM,"Day Care Centres , ",,,
4340,Humty Dumty Play School,play-schools,0891 - 2713887,,,,,"Door No. 7-20-12,  Plot No. 55",Pedda Waltair,530017,visakhapatnam,India,rupa.koganti9@gmail.com,,A. Annie,Monday - Saturday: 9 AM - 12 PM,,,,
4341,Kidzee,play-schools,9246634844, 9441824844,,,,#9-42-9/1,Siripuram,530003,visakhapatnam,India,kidzeesiripuram@gmail.com,http://www.kidzee.com,Mrs. Nidhi Tewari,,,,,
4342,Bachpan Play School,play-schools,9247874875, 9246666672,,,,"Door No. 39-4-8, Ground & 1st Floor",Murali Nagar,530007,visakhapatnam,India,response@bachpanglobal.com,http://www.bachpanglobal.com,,Monday - Friday: 9 AM - 1 PM,,,,"Rs 5000-10000 Fees Playschools , Toy Room Playschools , "
4343,Bachpan Play School,play-schools,9246524150, 9246114150,,,,Door No. 1,Ram Nagar,530001,visakhapatnam,India,response@bachpanglobal.com,http://www.bachpanglobal.com,,Monday - Friday: 9 AM - 1 PM,,,,"Rs 5000-10000 Fees Playschools , Toy Room Playschools , "
4344,Jain Heritage Cambridge School,play-schools,0891 - 2502211, 9392767608,,,,Door No. 9-1-47/6,Resapuvanipalem,530013,visakhapatnam,India,,http://www.toddlers.ac.in,,,,,,
4345,Brain Works,play-schools,0891 - 6455535, 9989050361,,,,No. 4/60,Law Sons Bay Colony,530017,visakhapatnam,India,vizag@brainworks.co.in,http://www.brainworks.co.in,,,,,,
4346,Smart Kidz Play School,play-schools,0891 - 6455520, 9642069555,,,,No. 39-6-44,Murali Nagar,530007,visakhapatnam,India,,http://www.smartkidzindia.com,,,,,,
4347,Brain Works,play-schools,9949602734, 9948166981,,,,"Door No. 4-60-5/2, Plot No. 20",Law Sons Bay Colony,530017,visakhapatnam,India,vizag@brainworks.co.in,http://www.brainworks.co.in,Pradeep/Sudha,Monday - Saturday: 9:00 am - 12:00 pm,"Day Care Centres , Preschools , ","Brain Works is a national chain of preschools that provides a world class learning environment and scientifically researched curriculum to maximize development of children during the early childhood years. Brain Works believes in providing a rich, stimulating environment using an eclectic approach geared to match different learning styles in children and recent research on brain development.The preschool follows a brain based learning methodology whereby regular stimulation is given to a child during the ""windows of opportunity"" which are the critical periods in a child's life when specific learning takes place. They also believe in creating an environment which encourages learning with all the five senses through which an infant's social, emotional, cognitive, physical and language development are stimulated during multi-sensory experiences.Brain research within a nurturing environment is one of the main goals of Brain Works. The organization strives to enable children to develop their social, emotional, physical and academic skills resulting in a joy towards learning. Brain Works also aims to make parent participation an integral part of their academic programme and to make each parent more knowledgeable about child development, behavior patterns and positive guidance techniques.Our Vision:
At Brain Works, we aspire to be a leading provider of 'high-quality and affordable' preschool / day-care services, which allow children to realize their potential. Our diverse methods based on brain research help provide a child a head-start in life.
Our Mission:Maximising the ""Windows of opportunity"" to enhance learning and maximizing development of the brain in children aged 0-6 years through a scientifically research driven teaching and learning environment encouraging the natural qualities of creativity, curiosity and eagerness to learn in children to develop to their fullest potential.If you want to know more about our services, just let us know about it. We will certainly get back to you as soon as we received your query.  ",,"English Medium Playschools , Girls Playschools , Hindi Playschools , Nursery Schools , Playground Facility Playschools , Regional Language Playschools , Toy Room Playschools , "
4348,Hello Kids Preschool,play-schools,0891 - 3078653, 9959364874,,,,H.No. 50-49-32,Seethammadhara,530013,visakhapatnam,India,sunita@curiousminds.in,http://www.hellokids.co.in,Sunita Jude,Monday - Saturday: 9 AM - 6 PM,"Preschools , ",,,"English Medium Playschools , Girls Playschools , Hindi Playschools , Nursery Schools , Regional Language Playschools , Toy Room Playschools , "
4349,Oi Play School,play-schools,9550037799, 9247012369,,,,Door No. 50-50-12,Seethammadhara,530013,visakhapatnam,India,seethamadhara.vskp@oiplayschool.com,http://www.oiplayschool.com,,,,,,
4350,Sanskriti Digi Play School,play-schools,9985955377,,,,,,Pendurthi,530047,visakhapatnam,India,,http://www.sanskritidps.com,Prakash,,,,,
4351,Hello Kids,play-schools,9849803882, 8913078653,,,,Door No. 50-49-32,Seethammadhara,530013,visakhapatnam,India,curiousminds@hellokids.co.in,http://www.hellokids.co.in,Sunita,,,,,
4352,Eurokids,play-schools,9393129009,,,,,No. 9-23-2 ,Vishakhapatnam Bus Station,531001,visakhapatnam,India,info@eurokidsindia.com,http://www.eurokidsindia.com,N.V. Ramakrishna Reddy,"Monday - Friday: 9 AM - 2.30 PM, Saturday: 9 AM - 12 PM","Kindergarten (KG) Schools , ",,,
4353,Eurokids,play-schools,9885022899, 9989312958,,,,No. 14-36-3/1,Vishakhapatnam Bus Station,531001,visakhapatnam,India,info@eurokidsindia.com,http://www.eurokidsindia.com,Gnyaneshwar Rao,"Monday - Friday: 9 AM - 2.30 PM, Saturday: 9 AM - 12 PM","Kindergarten (KG) Schools , ",,,
4354,Esperanza,play-schools,0891 - 6568789, 9652009702,,,,50-57-14,Rajendra Nagar,530016,visakhapatnam,India,suryakiranreddyk@gmail.com,,Surya Kiran,All days: 24 hours,"Preschools , ",Your happiness is our satisfaction. We are experienced service providers catering to the requirements of our valuable customer. We assure that you will walk out with pleasurable experience with our services. We guarantee efficient service and satisfaction to our clients. We are the best Playschools. Contact us for your needs.  ,,"English Medium Playschools , Girls Playschools , Hindi Playschools , Nursery Schools , Playground Facility Playschools , Regional Language Playschools , Toy Room Playschools , "
4355,School of Wonder Kids,play-schools,0891 - 2588488, 0891 - 2588388, 9246616264,,,,Asilmetta,530003,visakhapatnam,India,schoolofwonderkids@gmail.com,http://www.schoolofwonderkids.com,Ramu Naidu,Monday - Friday: 8 AM - 4 PM ( Lunch: 1 PM - 2 PM ),"Preschools , ","We are pleased to introduce ourselves as School of Wonder Kids since several years. We are known for our quality services, competitive prices and customer satisfaction. We deal with Playschools. We are continuously progressing in this sphere owing to the support of our enthusiastic & creative people and use of our advance facilities. For more details contact us.We have branch @ Pantulugari Meda, Gujuwaka, Visakhapatnam - 530026, Near Electrical Sub Station  ",,"English Medium Playschools , Girls Playschools , Hindi Playschools , Nursery Schools , Playground Facility Playschools , Regional Language Playschools , Toy Room Playschools , "
4356,Suveda Montessori Kids,play-schools,8977877666,,,,,Plot No. 2,Madhurawada,530041,visakhapatnam,India,suvedakids@mail.com,http://https://www.suvedakids.com,Sowbhagya,Monday - Saturday: 9 AM - 5 PM,,,,"Playground Facility Playschools , Regional Language Playschools , Rs 3000-5000 Fees Playschools , Toy Room Playschools , "
4357,Vizag Pre-schools,play-schools,9866622388,,,,,D No. 39-27-41,Madhavadhara,530018,visakhapatnam,India,,http://www.timekidspreschools.in,,Monday - Saturday: 9.30 AM - 2 PM,,,,
4358,The Tree House,play-schools,0891 - 2519935,,,,,Door No. 24-78-9/1,Gajuwaka,530026,visakhapatnam,India,,,,,,,,
4359,The Tree House,play-schools,0891 - 2737686,,,,,Plot No. MIG-76,Marripalem,530018,visakhapatnam,India,,,,,,,,
4360,Kidzee,play-schools,7658922288,,,,,No. 4-60-3/2,MVP Colony,530017,visakhapatnam,India,kidzeevizag@gmail.com,http://WWW.kidzee.com,,Monday - Saturday: 9 AM - 12.30 PM,,,,
4361,Podar Jumbo Kids,play-schools,0891 - 2783030, 9493521212,,,,"Plot No.58, Door No. 4-57-1/3",MVP Colony,530017,visakhapatnam,India,lawsonsbaycolony@jumbokids.com,http://www.jumbokids.com,Riddhi Parekh,Monday - Friday: 10 AM - 2 PM,,,,
4362,Blue Bird,play-schools,7842037908,,,,,MIG. 26,Pendurthi,530051,visakhapatnam,India,bluebirdplayschool@gmail.com,http://www.bluebirdplayschool.com,Rajeshwari,Monday - Saturday: 8.30 AM - 3 PM,,,,
4363,Cherry Kids Play School,play-schools,0891 - 2506979, 9951410679,,,,No. 45-40-49,Akkayyapalem,530016,visakhapatnam,India,mycherrykids@yahoo.com,http://www.cherrykids.in,Madhuri Devi,Monday - Saturday: 9 AM - 12.30 PM,,,,
4364,Blue Bells Play School,play-schools,9985897315, 9290250205,,,,"No. 39- 8- 18, Sector-  8",Murali Nagar,530007,visakhapatnam,India,,,Geetha,Monday - Saturday: 9 AM - 12 PM,,,,
4365,Angels Play School,play-schools,0891 - 2513012, 0891 - 2513012, 9666696919, 9603130909,,Door No. 58-13-62,Nad Kotha Road,530027,visakhapatnam,India,,,Megana,Monday - Saturday: 8 AM - 5.30 PM,,,,
4366,Brain Works,preschools,9949602734, 9948166981,,,,"Door No. 4-60-5/2, Plot No. 20",Law Sons Bay Colony,530017,visakhapatnam,India,vizag@brainworks.co.in,http://www.brainworks.co.in,Pradeep/Sudha,Monday - Saturday: 9:00 am - 12:00 pm,"Day Care Centres , Preschools , ","Brain Works is a national chain of preschools that provides a world class learning environment and scientifically researched curriculum to maximize development of children during the early childhood years. Brain Works believes in providing a rich, stimulating environment using an eclectic approach geared to match different learning styles in children and recent research on brain development.The preschool follows a brain based learning methodology whereby regular stimulation is given to a child during the ""windows of opportunity"" which are the critical periods in a child's life when specific learning takes place. They also believe in creating an environment which encourages learning with all the five senses through which an infant's social, emotional, cognitive, physical and language development are stimulated during multi-sensory experiences.Brain research within a nurturing environment is one of the main goals of Brain Works. The organization strives to enable children to develop their social, emotional, physical and academic skills resulting in a joy towards learning. Brain Works also aims to make parent participation an integral part of their academic programme and to make each parent more knowledgeable about child development, behavior patterns and positive guidance techniques.Our Vision:
At Brain Works, we aspire to be a leading provider of 'high-quality and affordable' preschool / day-care services, which allow children to realize their potential. Our diverse methods based on brain research help provide a child a head-start in life.
Our Mission:Maximising the ""Windows of opportunity"" to enhance learning and maximizing development of the brain in children aged 0-6 years through a scientifically research driven teaching and learning environment encouraging the natural qualities of creativity, curiosity and eagerness to learn in children to develop to their fullest potential.If you want to know more about our services, just let us know about it. We will certainly get back to you as soon as we received your query.  ",,"English Medium Playschools , Girls Playschools , Hindi Playschools , Nursery Schools , Playground Facility Playschools , Regional Language Playschools , Toy Room Playschools , "
4367,Hello Kids Preschool,preschools,0891 - 3078653, 9959364874,,,,H.No. 50-49-32,Seethammadhara,530013,visakhapatnam,India,sunita@curiousminds.in,http://www.hellokids.co.in,Sunita Jude,Monday - Saturday: 9 AM - 6 PM,"Preschools , ",,,"English Medium Playschools , Girls Playschools , Hindi Playschools , Nursery Schools , Regional Language Playschools , Toy Room Playschools , "
4368,Esperanza,preschools,0891 - 6568789, 9652009702,,,,50-57-14,Rajendra Nagar,530016,visakhapatnam,India,suryakiranreddyk@gmail.com,,Surya Kiran,All days: 24 hours,"Preschools , ",Your happiness is our satisfaction. We are experienced service providers catering to the requirements of our valuable customer. We assure that you will walk out with pleasurable experience with our services. We guarantee efficient service and satisfaction to our clients. We are the best Playschools. Contact us for your needs.  ,,"English Medium Playschools , Girls Playschools , Hindi Playschools , Nursery Schools , Playground Facility Playschools , Regional Language Playschools , Toy Room Playschools , "
4369,School of Wonder Kids,preschools,0891 - 2588488, 0891 - 2588388, 9246616264,,,,Asilmetta,530003,visakhapatnam,India,schoolofwonderkids@gmail.com,http://www.schoolofwonderkids.com,Ramu Naidu,Monday - Friday: 8 AM - 4 PM ( Lunch: 1 PM - 2 PM ),"Preschools , ","We are pleased to introduce ourselves as School of Wonder Kids since several years. We are known for our quality services, competitive prices and customer satisfaction. We deal with Playschools. We are continuously progressing in this sphere owing to the support of our enthusiastic & creative people and use of our advance facilities. For more details contact us.We have branch @ Pantulugari Meda, Gujuwaka, Visakhapatnam - 530026, Near Electrical Sub Station  ",,"English Medium Playschools , Girls Playschools , Hindi Playschools , Nursery Schools , Playground Facility Playschools , Regional Language Playschools , Toy Room Playschools , "
4370,Narayana Educational Institutions,residential-schools,0891 - 2710680, 0891 - 2533999, 0891 - 3200110, 9912343676,,,Asilmetta,530003,visakhapatnam,India,,,Sandhiya,,"Residential Schools , 2nd Year PUC Coaching , 1st Year PUC Coaching , ",,,
4371,Sri Prakash Vidyaniketan,residential-schools,0891 - 2719337, 0891 - 6662299, 0891 - 2719336, 9849493333,,,Asilmetta,530003,visakhapatnam,India,,http://www.sriprakash.org,,,,,,
4372,Sri Prakash Vidyaniketan,residential-schools,0891 - 2727719, 0891 - 2732899,,,,,Seethammadhara,530013,visakhapatnam,India,,http://www.sriprakashschools.com,,,,,,
4373,Blossom Play School,residential-schools,0891 - 2573227,,,,,,Pedda Waltair,530023,visakhapatnam,India,,,M. Vijaya Bharati,,,,,
4374,Sri Prathibha Educational Institutions,residential-schools,0891 - 2585858,,,,,,Asilmetta,530003,visakhapatnam,India,,,,,,,,
4375,Suryodaya Public School,residential-schools,0891 - 6576392,,,,,,Narasimha Nagar,530024,visakhapatnam,India,,,,,,,,
4376,VT High School,residential-schools,0891 - 2551313,,,,,,Rajendra Nagar,530016,visakhapatnam,India,,,P.N. Rao,,,,,
4377,Ramakrishna Residential Public School,residential-schools,0891 - 2574107,,,,,,Nad Kotha Road,530027,visakhapatnam,India,,http://www.ramakrishnaschool.com,Krishna Reddy,,,,,
4378,Sri Krishna Residential College & School,residential-schools,0891 - 2515657,,,,,,Sri Nagar,530016,visakhapatnam,India,,,,,,,,
4379,Vijayasri Residential School,residential-schools,0891 - 2573127,,,,,,Ram Nagar,530003,visakhapatnam,India,,,Radha Rani,,,,,
4380,AP Social Welfare Residential Schools,residential-schools,0891 - 0227179, 0891 - 0227179, 9704550025,,,,Anakapalle,531081,visakhapatnam,India,,,R. Rama Krishna ,Monday - Saturday: 9 AM - 5 PM,"Intermediate colleges , Intermediate MEC Colleges , Intermediate MPC Colleges , ",,,
4381,AP Social Welfare Residential Schools,residential-schools,08932 - 0236429, 08932 - 0236429, 9704550031,,,,Narsipatnam,531116,visakhapatnam,India,,,Saradha,Monday - Sunday : 24 Hrs,"Intermediate colleges , Intermediate MPC Colleges , ",,,
4382,A P Social Welfare Residential Schools,residential-schools,08924 - 0244283, 08924 - 0244283, 9704550032,,,Tallapalem,Anakapalle,531032,visakhapatnam,India,,,S.Rupavathi,Monday - Saturday: 10 AM - 5 PM ( Lunch: 1 PM - 1.30 PM ),"Intermediate colleges , Intermediate MPC Colleges , ",,,
4383,Dr. KKR Gowtham International School,state-board-schools,0891 - 2715199, 0891 - 2716199, 9160444004,,,,L.B. Colony,530017,visakhapatnam,India,,http://www.kkrgowtham.com,C.J. Chako,,"State Board Schools , CBSE Higher Secondary Schools , CBSE Primary Schools , State Board Higher Secondary Schools , State Board Primary Schools , ",,,
4384,Visakha Public School,state-board-schools,9985062059,,,,,No. 53/11/10,Maddilapalem,530013,visakhapatnam,India,narasimhanaidumiddi@gmail.com,,M. Narasimha Naidu,Monday - Saturday: 9 AM - 4.30 PM,"State Board High Schools , State Board Primary Schools , ",,,
4385,SR Digi School,state-board-schools,0891 - 2547070, 9642822322,,,,"No. 45-51-10,",Akkayyapalem,530016,visakhapatnam,India,,http://www.srdigischool.com,P.L.eelaSreedhar,Monday - Saturday: 8.30 AM - 5 PM,"State Board Schools , CBSE Primary Schools , State Board High Schools , ",,,
4386,Narayana IIT Olympiad School,state-board-schools,0891 - 2500237, 8500265711, 9160299261,,,No. 9-21-2,,,visakhapatnam,India,niop.iit@narayanainfo.com,http://www.narayanaolympiadschool.org,Someshwar Rao,Monday - Saturday: 8.30 AM - 5 PM,"ICSE Schools , State Board Schools , CBSE Primary Schools , State Board High Schools , State Board Primary Schools , ICSE Primary Schools , ",,,"CBSE Day Schools , Co-curricular Activities CBSE Schools , Co-Education ICSE Schools , Digital Classroom CBSE Schools , English Medium CBSE Schools , Kindergarten CBSE Schools , School Bus Facility CBSE Schools , Social Service Activity CBSE Schools , Sports Facility CBSE Schools , "
4387,Annapurna Public School,state-board-schools,0891 - 2511663,,,,,,Gajuwaka,530012,visakhapatnam,India,,,,,,,,
4388,Aruna Public School,state-board-schools,0891 - 2726677,,,,,,Nad Kotha Road,530009,visakhapatnam,India,,,,,,,,
4389,Aswini Public School,state-board-schools,0891 - 2573227,,,,,,Pedda Waltair,530023,visakhapatnam,India,,,Jaya Bharathi,,,,,
4390,Bethany School,state-board-schools,0891 - 2533255,,,,,,Daspalla Hills,530003,visakhapatnam,India,,,,,,,,
4391,Bethany School,state-board-schools,0891 - 2714040,,,,,,Maharani Peta,530002,visakhapatnam,India,,,,,,,,
4392,C B M High School,state-board-schools,0891 - 2569318,,,,,,Velampeta,530001,visakhapatnam,India,,,,,,,,
4393,Dvk Public School,state-board-schools,0891 - 2734649,,,,,,Marripalem,530018,visakhapatnam,India,,,,,,,,
4394,Mahathi Public School,state-board-schools,0891 - 2767689, 9666681911,,,,,Pendurthi,530051,visakhapatnam,India,,,G. Surekha,,,,,
4395,Maritime Education Training & Research Institute,state-board-schools,0891 - 5548336,,,,,,Jagadamba Junction,530020,visakhapatnam,India,,,,,,,,
4396,Prasnathi Niketan Mvvs Murthy E M H School,state-board-schools,0891 - 2558237, 0891 - 2727100,,,,,Marripalem,530018,visakhapatnam,India,,,Chandra Shekhar,,,,,
4397,Ramakrishna School,state-board-schools,0891 - 2769769,,,,,#58-18-21/1 & 2,Nad Kotha Road,530027,visakhapatnam,India,,,Krishna Reddy,,,,,
4398,Saraswathi Vidya Vihar,state-board-schools,0891 - 2799136,,,,,,Seethammadhara,530013,visakhapatnam,India,,,,,,,,
4399,Vijnana Bharathi of Bvk,state-board-schools,0891 - 2517076,,,,,,Gonthinavanipalem,530026,visakhapatnam,India,,,Dikshithulu,,,,,
4400,Visakha Valley School,state-board-schools,0891 - 2520118,,,,,,Arilova,530040,visakhapatnam,India,visakhavalleyschoolvsp@gmail.com,http://www.visakhavalleyschool.com,,,,,,
4401,Vijayasri Res School,state-board-schools,0891 - 2573127,,,,,#10-3-3-2/2,Asilmetta,530003,visakhapatnam,India,,,Vijaya,,,,,
4402,Sri Satya Sai Vidya Vihar,state-board-schools,0891 - 2552041, 0891 - 2783905,,,,,MVP Colony,530017,visakhapatnam,India,,,Nageshwar Rao,,"State Board Schools , CBSE High Schools , CBSE Primary Schools , ",,,
4403,A U English Medium School,state-board-schools,0891 - 2798809,,,,,,Andhra University Entrance Road,530003,visakhapatnam,India,,,,,,,,
4404,Apoorva Public School,state-board-schools,0891 - 3092597,,,,,,Gopalapatnam,530027,visakhapatnam,India,,,,,,,,
4405,Apswr School For Girls,state-board-schools,0891 - 2521795,,,,,,Vepagunta,530029,visakhapatnam,India,,,,,,,,
4406,Arunodaya Public School,state-board-schools,0891 - 2761570,,,,,,Gajuwaka,530026,visakhapatnam,India,,,,,,,,
4407,B B V High School,state-board-schools,0891 - 6667631,,,,,2nd Floor,Port Area,530001,visakhapatnam,India,,,Kamala,,,,,
4408,B V K High School,state-board-schools,0891 - 2551677, 0891 - 2563798,,,,,Dwaraka Nagar,530016,visakhapatnam,India,,,Ram Chandra Raju,,,,,
4409,Bharatiya Vidya Bhavan Public School,state-board-schools,0891 - 2553270, 0891 - 2798029,,,,,Narasimha Nagar,530024,visakhapatnam,India,bvb@yahoo.com,http://www.bhavanchennai.org,J. Shyamala,,,,,
4410,Chaitanya Public School,state-board-schools,0891 - 2510387,,,,,,Gajuwaka,530026,visakhapatnam,India,,,,,,,,
4411,Government Residential School For Visually,state-board-schools,0891 - 2798374,,,,,,Rushikonda,530045,visakhapatnam,India,,,,,,,,
4412,Jdp Visakha Residential School,state-board-schools,0891 - 2540176,,,,,#47-1-102,Dwaraka Nagar,530016,visakhapatnam,India,,,,,,,,
4413,M N R School,state-board-schools,0891 - 2540517, 0891 - 2711728,,,,,Dada Gardens,530020,visakhapatnam,India,,,,,"Coaching & Tuitions , Enterprise Training , Home & Private Tuitions , Big Data Analytics Online Training , Law Entrance Coaching , Home Tutors for Class I-V , R Analytics Online Training , SET Entrance Coaching , Home Tutors for Class VI-X , B.Com Home Tutors , B.Sc Home Tutors , BE Home Tuitions , Biology Home Tuitions for school , Chemistry Home Tuitions for school , Hindi Home Tuitions , English Home Tuitions for school , Physics Home Tuitions for school , Economics Home Tuitions , BBA Home Tuitions , MBA Home Tuitions , ICWA Home Tuitions , MCA Home Tuitions , Foreign Languages Coaching , GMAT Private Tuitions , CA Home Tuitions , Maths Home Tuitions for school , CAT Coaching , IIT Engineering Entrance Coaching , IAS Entrance Coaching , College Tuitions for Accounts, Finance, Statistics , Tuitions for College Subjects , School Tuitions for Math, Physics, Chemistry , School Tuitions for Accounts, Finance, Statistics , School Tuitions for All Subjects , Spoken English Classes , Music & Dance & Arts Classes , GRE Coaching , SAT Coaching , Medical Entrance Coaching , Chartered Accountant Coaching , Spoken Hindi Classes , NIFT/NID/CEED/FDDI Training , Banking Tuitions , Handwriting, Spelling & Reading Classes , Mass Communication Training , MBA & BBA Coaching , 2nd Year PUC Coaching , College Tuitions for Maths , College Tuitions for Physics , College Tuitions for Chemistry , ",,,"BE Home Tuitions , Biology Home Tuitions for school , CA Home Tuitions , CAT Coaching , Chartered Accountant Coaching , Chemistry Home Tuitions for school , College Tuitions for Accounts, Finance, Statistics , College Tuitions for Chemistry , College Tuitions for Maths , College Tuitions for Physics , Economics Home Tuitions , English Home Tuitions for school , Foreign Languages Coaching , GMAT Private Tuitions , GRE Coaching , Handwriting, Spelling & Reading Classes , Hindi Home Tuitions , Home Tutors for Class I-V , Home Tutors for Class VI-X , IAS Entrance Coaching , ICWA Home Tuitions , IIT Engineering Entrance Coaching , Mass Communication Training , Maths Home Tuitions for school , MBA & BBA Coaching , MBA Home Tuitions , MCA Home Tuitions , Medical Entrance Coaching , Music & Dance & Arts Classes , NIFT/NID/CEED/FDDI Training , Physics Home Tuitions for school , R Analytics Online Training , SAT Coaching , School Tuitions for Accounts, Finance, Statistics , School Tuitions for All Subjects , School Tuitions for Math, Physics, Chemistry , SET Entrance Coaching , Spoken English Classes , Spoken Hindi Classes , Tuitions for College Subjects , "
4414,Prgyna Grammar School,state-board-schools,0891 - 2782790,,,,,,MVP Colony,530017,visakhapatnam,India,,,Thresimma Rao,,,,,
4415,Sri Sai Brindavan Vidyaniketan,state-board-schools,0891 - 2561405,,,,,,Akkayyapalem,530016,visakhapatnam,India,,,,,,,,
4416,Sri Sarada Vidya Nilayam,state-board-schools,0891 - 2553031,,,,,,Kala Nagar,530013,visakhapatnam,India,,,,,,,,
4417,St Mary`s High School,state-board-schools,0891 - 3095519,,,,,,Doctors Colony,530013,visakhapatnam,India,,,,,,,,
4418,Suryodaya Public School,state-board-schools,0891 - 2503852,,,,,,Akkayyapalem,530024,visakhapatnam,India,,,,,,,,
4419,Vignan Talent School,state-board-schools,0891 - 2762303, 9866066148,,,,,Sriharipuram,530011,visakhapatnam,India,,,Bramha Reddy,,,,,
4420,Visakha Central School,state-board-schools,0891 - 2587759,,,,,,Gajuwaka,530026,visakhapatnam,India,,,,,,,,
4421,Won World School,state-board-schools,0891 - 2566174, 0891 - 2718961,,,,#4-47-7,L.B. Colony,530017,visakhapatnam,India,,,KS Reddy,,,,,
4422,Narayana Junior College,state-board-schools,0891 - 2757766, 0891 - 2572749, 9912349739,,,#58-1-396,Seethammapeta,530002,visakhapatnam,India,,,G. Srinivas Rao,,"State Board Higher Secondary Schools , ",,,
4423,Narayana Junior College,state-board-schools,8916533084, 9912343102,,,,#48-14-51,Dwaraka Nagar,530016,visakhapatnam,India,,,Dr. P. Krishna Kishor,,"State Board Higher Secondary Schools , ",,,
4424,Narayana Junior College,state-board-schools,0891 - 2714183, 0891 - 2714193, 9912343896,,,#10-50-58/1,Ram Nagar,530002,visakhapatnam,India,vsp_hiit@yahoo.co.in,http://www.narayanagroup.com,,,"State Board Higher Secondary Schools , ",,,
4425,Narayana Junior College,state-board-schools,0891 - 2533999, 0891 - 2710943, 9912343664,,,#10-51-15,Asilmetta,530003,visakhapatnam,India,vspnmk@gmail.com,http://www.narayanagroup.com,,,"State Board Higher Secondary Schools , ",,,
4426,Narayana Junior College,state-board-schools,0891 - 2501135, 0891 - 2742280, 9912343831,,,#10-1-33/2,Asilmetta,530003,visakhapatnam,India,info@narayanagroup.com,http://www.narayanagroup.com,,,"State Board Higher Secondary Schools , ",,,
4427,Ravindra Bharathi School,state-board-schools,0891 - 2555118, 8096699593,,,,,MVP Colony,530017,visakhapatnam,India,,http://www.rbschools.in,Lakshmi,Monday - Sunday : 24 Hrs,"State Board High Schools , State Board Primary Schools , ",,,
4428,Elegant English Medium School,state-board-schools,0891 - 2735067, 0891 - 2783036,,,,Plot No. 76,Mvp Colony,530009,visakhapatnam,India,,,Vijaya,,"State Board High Schools , State Board Higher Secondary Schools , ",,,
4429,NRIS Indian Springs,state-board-schools,0891 - 2495778,,,,,"No. 4-46-16, Plot No. 9",Pedda Waltair,530017,visakhapatnam,India,vizagprincipal@indiansprings.in,http://www.indiansprings.in,Rama Devi,Monday - Saturday: 9 AM - 4 PM,"State Board Schools , CBSE High Schools , CBSE Primary Schools , State Board Primary Schools , ",,,"CBSE Day Schools , Co-curricular Activities CBSE Schools , Co-Education CBSE Schools , Digital Classroom CBSE Schools , English Medium CBSE Schools , School Bus Facility CBSE Schools , Sports Facility CBSE Schools , "
4430,AU English Medium School,state-board-schools,0891 - 2798809, 0891 - 2798809,,,,,Chinna Waltair,530003,visakhapatnam,India,auemshool@gmail.com,,Hemalatha,Monday - Saturday: 9 AM - 4 PM,"State Board High Schools , ",,,
4431,Amar Concept School,state-board-schools,0891 - 2548898, 0891 - 2548898, 0891 - 2548899, 9848936937, 9441322999,Door No. 58-18-87,Nad Kotha Road,530027,visakhapatnam,India,,http://www.amarconceptschool.com,Sunitha,Monday - Saturday: 7.30 AM - 5.30 PM ( Lunch: 12.30 AM - 1.30 PM ),"State Board Schools , CBSE Primary Schools , State Board Higher Secondary Schools , ",,,
